"Name","Type","NameNiederlassung","Street","Postcode","City","State","Wheelchair"
"Berliner Bank","amenity=bank","Berlin-HermannQuartier BB","Hermannstraße 158a","12051","Berlin","Berlin","yes"
"Berliner Bank","amenity=bank","Berlin-Wilmersdorfer Straße BB","Wilmersdorfer Straße 138-140","10585","Berlin","Berlin","yes"
"Berliner Bank","amenity=bank","Berlin-Kottbusser Tor BB","Skalitzer Straße 137","10999","Berlin","Berlin","no"
"Berliner Bank","amenity=bank","Berlin-Rathaus Neukölln BB","Karl-Marx-Straße 91","12043","Berlin","Berlin","yes"
"Berliner Bank","amenity=bank","Berlin-Kurfürstendamm BB","Kurfürstendamm 62","10707","Berlin","Berlin","no"
"Berliner Bank","amenity=bank","Berlin-Mehringdamm BB","Mehringdamm 32-34","10961","Berlin","Berlin","no"
"Berliner Bank","amenity=bank","Berlin-Alt-Moabit BB","Alt-Moabit 98","10559","Berlin","Berlin","no"
"Berliner Bank","amenity=bank","Berlin-Siemensstadt BB","Nonnendammallee 95-96","13629","Berlin","Berlin","yes"
"Berliner Bank","amenity=bank","Berlin-Lichtenrade BB","Bahnhofstraße 47","12305","Berlin","Berlin","no"
"Berliner Bank","amenity=bank","Berlin-Gropiuspassagen BB","Johannisthaler Chaussee 295","12351","Berlin","Berlin","yes"
"Berliner Bank","amenity=bank","Berlin-Schmargendorf BB","Breite Straße 26","14199","Berlin","Berlin","no"
"Berliner Bank","amenity=bank","Berlin-Frohnau BB","Zeltinger Platz 9","13465","Berlin","Berlin","no"
"Berliner Bank","amenity=bank","Berlin-Kurt-Schumacher-Platz BB","Scharnweberstraße 138","13405","Berlin","Berlin","no"
"Berliner Bank","amenity=bank","Berlin-Tegel BB","Gorkistraße 11","13507","Berlin","Berlin","no"
"Berliner Bank","amenity=bank","Berlin-Wittenau BB","Oranienburger Straße 88","13437","Berlin","Berlin","no"
"Berliner Bank","amenity=bank","Berlin-Innsbrucker Platz BB","Wexstraße 1","10825","Berlin","Berlin","no"
"Berliner Bank","amenity=bank","Berlin-Kaiser-Wilhelm-Platz BB","Kaiser-Wilhelm-Platz 3","10827","Berlin","Berlin","yes"
"Berliner Bank","amenity=bank","Berlin-Spandau BB","Carl-Schurz-Straße 46","13597","Berlin","Berlin","yes"
"Berliner Bank","amenity=bank","Berlin-Steglitz BB","Schloßstraße 114","12163","Berlin","Berlin","no"
"Berliner Bank","amenity=bank","Berlin-Drakestraße BB","Drakestraße 48a","12205","Berlin","Berlin","yes"
"Berliner Bank","amenity=bank","Berlin-Westphalweg BB","Mariendorfer Damm 69","12109","Berlin","Berlin","no"
"Berliner Bank","amenity=bank","Berlin-Wedding BB","Müllerstraße 32","13353","Berlin","Berlin","yes"
"Berliner Bank","amenity=bank","Berlin-Prinzenallee BB","Prinzenallee 89-90","13357","Berlin","Berlin","no"
"Berliner Bank","amenity=bank","Berlin-Wilmersdorf BB","Uhlandstraße 97","10715","Berlin","Berlin","yes"
"Berliner Bank","amenity=bank","Berlin-Zehlendorf BB","Teltower Damm 29","14169","Berlin","Berlin","yes"
"Berliner Bank","amenity=bank","Berlin-Westend BB","Reichsstraße 94","14052","Berlin","Berlin","yes"
"Berliner Bank","amenity=bank","Berlin-Falkenhagener Feld BB","Am Kiesteich 63","13589","Berlin","Berlin","yes"
"Berliner Bank","amenity=bank","Berlin-Lankwitz BB","Kaiser-Wilhelm-Straße 72","12247","Berlin","Berlin","no"
"Berliner Bank","amenity=bank","Berlin-Alt-Rudow BB","Alt-Rudow 13","12357","Berlin","Berlin","yes"
"Berliner Bank","amenity=bank","Berlin-City BB","Hardenbergstraße 32","10623","Berlin","Berlin","yes"
"Berliner Bank","amenity=bank","Berlin-Mitte BB","Friedrichstraße 185-190","10117","Berlin","Berlin","no"
"Berliner Bank","amenity=bank","Berlin-Friedrichshain BB","Frankfurter Allee 106","10247","Berlin","Berlin","no"
"Berliner Bank","amenity=bank","Berlin-Hellersdorf BB","Alice-Salomon-Platz 2-3","12627","Berlin","Berlin","no"
"Berliner Bank","amenity=bank","Berlin-Prenzlauer Berg BB","Schönhauser Allee 144","10435","Berlin","Berlin","no"
"Berliner Bank","amenity=bank","Berlin-Köpenick BB","Bahnhofstraße 43","12555","Berlin","Berlin","yes"
"Berliner Bank","amenity=bank","Berlin-Pankow BB","Breite Straße 33-34","13187","Berlin","Berlin","no"
"Berliner Bank","amenity=bank","Potsdam BB","Brandenburger Straße 48","14467","Potsdam","Brandenburg","no"
"Berliner Bank","amenity=atm","Berlin-Brunnenstraße BB","Brunnenstraße 79",13355,"Berlin","Berlin","no"
"Berliner Bank","amenity=atm","Berlin-Dahlem Dorf BB","Königin-Luise-Straße 43",14195,"Berlin","Berlin","no"
"Berliner Bank","amenity=atm","Berlin-Flughafen-Schönefeld BB","Flughafen-Berlin-Schönefeld",12529,"Schönefeld","Brandenburg","yes"
"Berliner Bank","amenity=atm","Berlin-Flughafen-Tegel BB","Flughafen-Berlin-Tegel",13405,"Berlin","Berlin","yes"
"Berliner Bank","amenity=atm","Berlin-Hakenfelde BB","Streitstraße 6-19",13587,"Berlin","Berlin","yes"
"Berliner Bank","amenity=atm","Berlin-Haselhorst BB","Haselhorster Damm 1",13599,"Berlin","Berlin","no"
"Berliner Bank","amenity=atm","Berlin-Hermsdorf BB","Heinsestraße 32-36",13467,"Berlin","Berlin","yes"
"Berliner Bank","amenity=atm","Berlin-Mariendorfer Damm BB","Mariendorfer Damm 444",12107,"Berlin","Berlin","yes"
"Berliner Bank","amenity=atm","Berlin-Marienfelde BB","Marienfelder Allee 149",12279,"Berlin","Berlin","yes"
"Berliner Bank","amenity=atm","Berlin-Mexikoplatz BB","Argentinische Allee 2",14163,"Berlin","Berlin","yes"
"Berliner Bank","amenity=atm","Berlin-Schöneweide BB","Schnellerstraße 127",12439,"Berlin","Berlin","no"
"Deutsche Bank","amenity=bank","Aachen-Brand","Trierer Straße 746","52078","Aachen","Nordrhein-Westfalen / North Rhine-Westphalia","yes"
"Deutsche Bank","amenity=bank","Aachen","Friedrich-Wilhelm-Platz 15","52062","Aachen","Nordrhein-Westfalen / North Rhine-Westphalia","yes"
"Deutsche Bank","amenity=bank","Aalen","Schubartstraße 13","73430","Aalen","Baden-Württemberg / Baden-Wuerttemberg","yes"
"Deutsche Bank","amenity=bank","Achim","Obernstraße 26","28832","Achim","Niedersachsen / Lower Saxony","yes"
"Deutsche Bank","amenity=bank","Ahlen","Oststraße 12","59227","Ahlen","Nordrhein-Westfalen / North Rhine-Westphalia","yes"
"Deutsche Bank","amenity=bank","Ahrensburg","Manhagener Allee 5","22926","Ahrensburg","Schleswig-Holstein","yes"
"Deutsche Bank","amenity=bank","Albstadt-Ebingen","Marktstraße 30","72458","Albstadt","Baden-Württemberg / Baden-Wuerttemberg","yes"
"Deutsche Bank","amenity=bank","Alfeld","Burgfreiheit 5","31061","Alfeld","Niedersachsen / Lower Saxony","yes"
"Deutsche Bank","amenity=bank","Alsdorf","Albrecht-Dürer-Straße 6","52477","Alsdorf","Nordrhein-Westfalen / North Rhine-Westphalia","yes"
"Deutsche Bank","amenity=bank","Altena","Kirchstraße 7","58762","Altena","Nordrhein-Westfalen / North Rhine-Westphalia","no"
"Deutsche Bank","amenity=bank","Altenburg","Burgstraße 3-4","4600","Altenburg","Thüringen / Thuringia","yes"
"Deutsche Bank","amenity=bank","Alzey","Antoniterstraße 17","55232","Alzey","Rheinland-Pfalz / Rhineland-Palatinate","no"
"Deutsche Bank","amenity=bank","Amberg","Bahnhofstraße 4","92224","Amberg","Bayern / Bavaria","no"
"Deutsche Bank","amenity=bank","Andernach","Bahnhofstraße 28","56626","Andernach","Rheinland-Pfalz / Rhineland-Palatinate","yes"
"Deutsche Bank","amenity=bank","Anklam","Steinstraße 12","17389","Anklam","Mecklenburg-Vorpommern / Mecklenburg-Western Pomerania","no"
"Deutsche Bank","amenity=bank","Brühl","Kölnstraße 41","50321","Brühl","Nordrhein-Westfalen / North Rhine-Westphalia","yes"
"Deutsche Bank","amenity=bank","Buchholz","Breite Straße 6","21244","Buchholz","Niedersachsen / Lower Saxony","yes"
"Deutsche Bank","amenity=bank","Bad Honnef","Bahnhofstraße 16a","53604","Bad Honnef","Nordrhein-Westfalen / North Rhine-Westphalia","yes"
"Deutsche Bank","amenity=bank","Dinslaken","Friedrich-Ebert-Straße 70-72","46535","Dinslaken","Nordrhein-Westfalen / North Rhine-Westphalia","yes"
"Deutsche Bank","amenity=bank","Dormagen","Kölner Straße 28","41539","Dormagen","Nordrhein-Westfalen / North Rhine-Westphalia","yes"
"Deutsche Bank","amenity=bank","Annaberg-Buchholz","Wolkensteiner Straße 15","9456","Annaberg-Buchholz","Sachsen / Saxony","no"
"Deutsche Bank","amenity=bank","Apolda","Bahnhofstraße 24","99510","Apolda","Thüringen / Thuringia","no"
"Deutsche Bank","amenity=bank","Arnsberg","Hauptstraße 6","59755","Arnsberg","Nordrhein-Westfalen / North Rhine-Westphalia","yes"
"Deutsche Bank","amenity=bank","Aschaffenburg","Luitpoldstraße 4","63739","Aschaffenburg","Bayern / Bavaria","yes"
"Deutsche Bank","amenity=bank","Aschersleben","Markt 15","6449","Aschersleben","Sachsen-Anhalt / Saxony-Anhalt","yes"
"Deutsche Bank","amenity=bank","Aue","Altmarkt 12","8280","Aue","Sachsen / Saxony","yes"
"Deutsche Bank","amenity=bank","Augsburg-Fuggerstraße","Fuggerstraße 1","86150","Augsburg","Bayern / Bavaria","yes"
"Deutsche Bank","amenity=bank","Augsburg-Lechhausen","Blücherstraße 1","86165","Augsburg","Bayern / Bavaria","yes"
"Deutsche Bank","amenity=bank","Aurich","Burgstraße 10","26603","Aurich","Niedersachsen / Lower Saxony","no"
"Deutsche Bank","amenity=bank","Bad Doberan","Am Markt 13","18209","Bad Doberan","Mecklenburg-Vorpommern / Mecklenburg-Western Pomerania","yes"
"Deutsche Bank","amenity=bank","Bad Dürkheim","Kurgartenstraße 20","67098","Bad Dürkheim","Rheinland-Pfalz / Rhineland-Palatinate","no"
"Deutsche Bank","amenity=bank","Bad Harzburg","Schmiedestraße 1","38667","Bad Harzburg","Niedersachsen / Lower Saxony","yes"
"Deutsche Bank","amenity=bank","Bad Hersfeld","Dudenstraße 11","36251","Bad Hersfeld","Hessen","no"
"Deutsche Bank","amenity=bank","Bad Homburg","Louisenstraße 52","61348","Bad Homburg","Hessen","yes"
"Deutsche Bank","amenity=bank","Bad Kreuznach","Mannheimer Straße 180","55543","Bad Kreuznach","Rheinland-Pfalz / Rhineland-Palatinate","yes"
"Deutsche Bank","amenity=bank","Bad Langensalza","Mühlhäuser Straße 34","99947","Bad Langensalza","Thüringen / Thuringia","yes"
"Deutsche Bank","amenity=bank","Bad Neuenahr","Hauptstraße 113","53474","Bad Neuenahr","Rheinland-Pfalz / Rhineland-Palatinate","no"
"Deutsche Bank","amenity=bank","Bad Oeynhausen","Portastraße 1","32545","Bad Oeynhausen","Nordrhein-Westfalen / North Rhine-Westphalia","yes"
"Deutsche Bank","amenity=bank","Bad Oldesloe","Besttorstraße 3","23843","Bad Oldesloe","Schleswig-Holstein","yes"
"Deutsche Bank","amenity=bank","Bad Reichenhall","Heilingbrunnerstraße 2","83435","Bad Reichenhall","Bayern / Bavaria","no"
"Deutsche Bank","amenity=bank","Bad Säckingen","Alte Basler Straße 4","79713","Bad Säckingen","Baden-Württemberg / Baden-Wuerttemberg","yes"
"Deutsche Bank","amenity=bank","Bad Salzuflen","Am Herforder Tor 3","32105","Bad Salzuflen","Nordrhein-Westfalen / North Rhine-Westphalia","no"
"Deutsche Bank","amenity=bank","Bad Schwartau","Auguststraße 2","23611","Bad Schwartau","Schleswig-Holstein","yes"
"Deutsche Bank","amenity=bank","Bad Segeberg","Kurhausstraße 15-17","23795","Bad Segeberg","Schleswig-Holstein","no"
"Deutsche Bank","amenity=bank","Bad Tölz","Marktstraße 22","83646","Bad Tölz","Bayern / Bavaria","no"
"Deutsche Bank","amenity=bank","Bad Wildungen","Brunnenstraße 69","34537","Bad Wildungen","Hessen","yes"
"Deutsche Bank","amenity=bank","Bad Zwischenahn","Georgstraße 2a","26160","Bad Zwischenahn","Niedersachsen / Lower Saxony","no"
"Deutsche Bank","amenity=bank","Baden-Baden","Sophienstraße 2","76530","Baden-Baden","Baden-Württemberg / Baden-Wuerttemberg","yes"
"Deutsche Bank","amenity=bank","Bamberg","Lange Straße 37","96047","Bamberg","Bayern / Bavaria","no"
"Deutsche Bank","amenity=bank","Barsinghausen","Marktstraße 15","30890","Barsinghausen","Niedersachsen / Lower Saxony","no"
"Deutsche Bank","amenity=bank","Bautzen","Postplatz 6","2625","Bautzen","Sachsen / Saxony","no"
"Deutsche Bank","amenity=bank","Bayreuth","Bahnhofstraße 1a","95444","Bayreuth","Bayern / Bavaria","yes"
"Deutsche Bank","amenity=bank","Bergisch Gladbach-Bensberg","Kölner Straße 2","51429","Bergisch Gladbach","Nordrhein-Westfalen / North Rhine-Westphalia","yes"
"Deutsche Bank","amenity=bank","Bensheim","Promenadenstraße 6","64625","Bensheim","Hessen","yes"
"Deutsche Bank","amenity=bank","Bergen auf Rügen","Markt 8","18528","Bergen auf Rügen","Mecklenburg-Vorpommern / Mecklenburg-Western Pomerania","yes"
"Deutsche Bank","amenity=bank","Bergheim","Bethlehemer Straße 4","50126","Bergheim","Nordrhein-Westfalen / North Rhine-Westphalia","no"
"Deutsche Bank","amenity=bank","Bergisch Gladbach","Hauptstraße 177","51465","Bergisch Gladbach","Nordrhein-Westfalen / North Rhine-Westphalia","no"
"Deutsche Bank","amenity=bank","Berlin-Adlershof","Dörpfeldstraße 11","12489","Berlin","Berlin","no"
"Deutsche Bank","amenity=bank","Berlin-Alexanderplatz","Alexanderstraße 5","10178","Berlin","Berlin","yes"
"Deutsche Bank","amenity=bank","Berlin-Bayerischer Platz","Bayerischer Platz 9","10779","Berlin","Berlin","no"
"Deutsche Bank","amenity=bank","Berlin-Drakestraße","Drakestraße 33a","12205","Berlin","Berlin","yes"
"Deutsche Bank","amenity=bank","Berlin-Friedenau","Rheinstraße 45-46","12161","Berlin","Berlin","no"
"Deutsche Bank","amenity=bank","Berlin-Frohnau","Welfenallee 3-7","13465","Berlin","Berlin","yes"
"Deutsche Bank","amenity=bank","Berlin-Johannisthaler Chaussee","Johannisthaler Chaussee 300","12351","Berlin","Berlin","yes"
"Deutsche Bank","amenity=bank","Berlin-Halensee","Kurfürstendamm 111","10711","Berlin","Berlin","yes"
"Deutsche Bank","amenity=bank","Berlin-Hermannplatz","Hermannstraße 256-258","12049","Berlin","Berlin","yes"
"Deutsche Bank","amenity=bank","Berlin-Hohenschönhausen","Zingster Straße 1","13051","Berlin","Berlin","yes"
"Deutsche Bank","amenity=bank","Berlin-Kladow","Kladower Damm 366","14089","Berlin","Berlin","yes"
"Deutsche Bank","amenity=bank","Berlin-Köpenick","Bahnhofstraße 6","12555","Berlin","Berlin","no"
"Deutsche Bank","amenity=bank","Berlin-Kreuzberg","Mehringdamm 48","10961","Berlin","Berlin","no"
"Deutsche Bank","amenity=bank","Berlin-Kurt-Schumacher-Platz","Ollenhauerstraße 3","13403","Berlin","Berlin","yes"
"Deutsche Bank","amenity=bank","Berlin-Kurfürstendamm","Kurfürstendamm 28","10719","Berlin","Berlin","yes"
"Deutsche Bank","amenity=bank","Berlin-Lichtenberg","Frankfurter Allee 113","10365","Berlin","Berlin","yes"
"Deutsche Bank","amenity=bank","Berlin-Lichtenrade","Bahnhofstraße 27","12305","Berlin","Berlin","yes"
"Deutsche Bank","amenity=bank","Berlin-Lichterfelde Ost","Kranoldplatz 5","12209","Berlin","Berlin","yes"
"Deutsche Bank","amenity=bank","Berlin-Märkisches Viertel","Wilhelmsruher Damm 130-132","13439","Berlin","Berlin","yes"
"Deutsche Bank","amenity=bank","Berlin-Mariendorfer Damm","Mariendorfer Damm 65","12109","Berlin","Berlin","no"
"Deutsche Bank","amenity=bank","Berlin-Marzahn","Marzahner Promenade 25","12679","Berlin","Berlin","yes"
"Deutsche Bank","amenity=bank","Berlin-Bellevue","Alt-Moabit 109","10559","Berlin","Berlin","no"
"Deutsche Bank","amenity=bank","Berlin-Neukölln","Karl-Marx-Straße 163","12043","Berlin","Berlin","no"
"Deutsche Bank","amenity=bank","Berlin-Olivaer Platz","Kurfürstendamm 182-183","10707","Berlin","Berlin","yes"
"Deutsche Bank","amenity=bank","Berlin-Otto-Suhr-Allee","Otto-Suhr-Allee 6-16","10585","Berlin","Berlin","yes"
"Deutsche Bank","amenity=bank","Berlin-Potsdamer Platz","Potsdamer Platz 11","10785","Berlin","Berlin","yes"
"Deutsche Bank","amenity=bank","Berlin-Prenzlauer Berg","Danziger Straße 125-127","10407","Berlin","Berlin","no"
"Deutsche Bank","amenity=bank","Berlin-Prinzenallee","Prinzenallee 1","13357","Berlin","Berlin","yes"
"Deutsche Bank","amenity=bank","Berlin-Reinickendorf","Residenzstraße 115-116","13409","Berlin","Berlin","yes"
"Deutsche Bank","amenity=bank","Berlin-Rudow","Köpenicker Straße 184","12355","Berlin","Berlin","yes"
"Deutsche Bank","amenity=bank","Berlin-Schmargendorf","Breite Straße 36","14199","Berlin","Berlin","yes"
"Deutsche Bank","amenity=bank","Berlin-Schöneberg","Kaiser-Wilhelm-Platz 1-2","10827","Berlin","Berlin","yes"
"Deutsche Bank","amenity=bank","Berlin-Schönhauser Allee","Schönhauser Allee 120","10437","Berlin","Berlin","yes"
"Deutsche Bank","amenity=bank","Berlin-Sophie-Charlotte-Platz","Bismarckstraße 68","10627","Berlin","Berlin","yes"
"Deutsche Bank","amenity=bank","Berlin-Spandau","Markt 5","13597","Berlin","Berlin","no"
"Deutsche Bank","amenity=bank","Berlin-Spandau-Wilhelmstadt","Wilhelmstraße 167-168","13595","Berlin","Berlin","yes"
"Deutsche Bank","amenity=bank","Berlin-Steglitz","Schloßstraße 88","12163","Berlin","Berlin","no"
"Deutsche Bank","amenity=bank","Berlin-Steglitzer Damm","Steglitzer Damm 26","12169","Berlin","Berlin","yes"
"Deutsche Bank","amenity=bank","Berlin-Tegel","Alt-Tegel 10","13507","Berlin","Berlin","no"
"Deutsche Bank","amenity=bank","Berlin-Tempelhof","Tempelhofer Damm 143","12099","Berlin","Berlin","no"
"Deutsche Bank","amenity=bank","Berlin-Unter den Linden","Unter den Linden 13-15","10117","Berlin","Berlin","yes"
"Deutsche Bank","amenity=bank","Berlin-Wedding","Müllerstraße 34a","13353","Berlin","Berlin","yes"
"Deutsche Bank","amenity=bank","Berlin-Weißensee","Berliner Allee 47","13088","Berlin","Berlin","no"
"Deutsche Bank","amenity=bank","Berlin-Wilmersdorf","Brandenburgische Straße 84-85","10713","Berlin","Berlin","yes"
"Deutsche Bank","amenity=bank","Berlin-Wittenbergplatz","Tauentzienstraße 1","10789","Berlin","Berlin","yes"
"Deutsche Bank","amenity=bank","Berlin-Zehlendorf","Teltower Damm 2; Eingang Potsdamer Straße 54","14169","Berlin","Berlin","yes"
"Deutsche Bank","amenity=bank","Berlin-Zoologischer Garten","Hardenbergstraße 29d","10623","Berlin","Berlin","yes"
"Deutsche Bank","amenity=bank","Bernau","Marktplatz 5","16321","Bernau","Brandenburg","no"
"Deutsche Bank","amenity=bank","Bernkastel-Kues","Cusanusstraße 20","54470","Bernkastel-Kues","Rheinland-Pfalz / Rhineland-Palatinate","yes"
"Deutsche Bank","amenity=bank","Betzdorf","Wilhelmstraße 18","57518","Betzdorf","Rheinland-Pfalz / Rhineland-Palatinate","yes"
"Deutsche Bank","amenity=bank","Biberach","Holzmarkt 6","88400","Biberach","Baden-Württemberg / Baden-Wuerttemberg","no"
"Deutsche Bank","amenity=bank","Bielefeld","Herforder Straße 23","33602","Bielefeld","Nordrhein-Westfalen / North Rhine-Westphalia","yes"
"Deutsche Bank","amenity=bank","Bielefeld-Brackwede","Hauptstraße 138","33647","Bielefeld","Nordrhein-Westfalen / North Rhine-Westphalia","yes"
"Deutsche Bank","amenity=bank","Bielefeld-Sennestadt","Elbeallee 60","33689","Bielefeld","Nordrhein-Westfalen / North Rhine-Westphalia","yes"
"Deutsche Bank","amenity=bank","Bietigheim","Stuttgarter Straße 56","74321","Bietigheim-Bissingen","Baden-Württemberg / Baden-Wuerttemberg","no"
"Deutsche Bank","amenity=bank","Bingen","Mainzer Straße 12","55411","Bingen","Rheinland-Pfalz / Rhineland-Palatinate","no"
"Deutsche Bank","amenity=bank","Bitterfeld","Bismarckstraße 15; Ortsteil Bitterfeld","6749","Bitterfeld-Wolfen","Sachsen-Anhalt / Saxony-Anhalt","no"
"Deutsche Bank","amenity=bank","Bocholt","Europaplatz 12","46399","Bocholt","Nordrhein-Westfalen / North Rhine-Westphalia","yes"
"Deutsche Bank","amenity=bank","Bochum-Husemannplatz","Husemannplatz 5a","44787","Bochum","Nordrhein-Westfalen / North Rhine-Westphalia","no"
"Deutsche Bank","amenity=bank","Bochum-Linden","Hattinger Straße 811","44879","Bochum","Nordrhein-Westfalen / North Rhine-Westphalia","no"
"Deutsche Bank","amenity=bank","Bochum-Wattenscheid","Hochstraße 6","44866","Bochum","Nordrhein-Westfalen / North Rhine-Westphalia","yes"
"Deutsche Bank","amenity=bank","Böblingen","Stadtgrabenstraße 19","71032","Böblingen","Baden-Württemberg / Baden-Wuerttemberg","yes"
"Deutsche Bank","amenity=bank","Bonn-Bad Godesberg","Moltkeplatz 1","53173","Bonn","Nordrhein-Westfalen / North Rhine-Westphalia","yes"
"Deutsche Bank","amenity=bank","Bonn-Beuel","Friedrich-Breuer-Straße 86","53225","Bonn","Nordrhein-Westfalen / North Rhine-Westphalia","no"
"Deutsche Bank","amenity=bank","Bonn-Duisdorf","Am Schickshof 1-3","53123","Bonn","Nordrhein-Westfalen / North Rhine-Westphalia","yes"
"Deutsche Bank","amenity=bank","Bonn","Kaiserplatz 7-9","53113","Bonn","Nordrhein-Westfalen / North Rhine-Westphalia","yes"
"Deutsche Bank","amenity=bank","Borna","Markt 5","4552","Borna","Sachsen / Saxony","yes"
"Deutsche Bank","amenity=bank","Bottrop","Osterfelder Straße 17","46236","Bottrop","Nordrhein-Westfalen / North Rhine-Westphalia","yes"
"Deutsche Bank","amenity=bank","Brandenburg","St.-Annen-Straße 38","14776","Brandenburg","Brandenburg","yes"
"Deutsche Bank","amenity=bank","Braunschweig-Brabandtstraße","Brabandtstraße 10","38100","Braunschweig","Niedersachsen / Lower Saxony","yes"
"Deutsche Bank","amenity=bank","Braunschweig-Bohlweg","Bohlweg 24","38100","Braunschweig","Niedersachsen / Lower Saxony","yes"
"Deutsche Bank","amenity=bank","Braunschweig-Hagenring","Hagenring 71-72","38106","Braunschweig","Niedersachsen / Lower Saxony","no"
"Deutsche Bank","amenity=bank","Braunschweig-Querum","Bevenroder Straße 123","38108","Braunschweig","Niedersachsen / Lower Saxony","no"
"Deutsche Bank","amenity=bank","Bremen-Domshof","Domshof 25","28195","Bremen","Bremen","yes"
"Deutsche Bank","amenity=bank","Bremen-Gröpelingen","Gröpelinger Heerstraße 199","28239","Bremen","Bremen","yes"
"Deutsche Bank","amenity=bank","Bremen-Hemelingen","Hemelinger Bahnhofstraße 7","28309","Bremen","Bremen","yes"
"Deutsche Bank","amenity=bank","Bremen-Huchting","Kirchhuchtinger Landstraße 85a","28259","Bremen","Bremen","yes"
"Deutsche Bank","amenity=bank","Bremen-Neustadt","Pappelstraße 66-68","28199","Bremen","Bremen","no"
"Deutsche Bank","amenity=bank","Bremen-Nord","Gerhard-Rohlfs-Straße 62","28757","Bremen","Bremen","yes"
"Deutsche Bank","amenity=bank","Bremen-Schwachhausen","Schwachhauser Heerstraße 199","28211","Bremen","Bremen","yes"
"Deutsche Bank","amenity=bank","Bremerhaven","Bürgermeister-Smidt-Straße 9-11","27568","Bremerhaven","Bremen","yes"
"Deutsche Bank","amenity=bank","Brilon","Steinweg 10","59929","Brilon","Nordrhein-Westfalen / North Rhine-Westphalia","yes"
"Deutsche Bank","amenity=bank","Bruchsal","Kaiserstraße 22","76646","Bruchsal","Baden-Württemberg / Baden-Wuerttemberg","yes"
"Deutsche Bank","amenity=bank","Bühl","Hauptstraße 42","77815","Bühl","Baden-Württemberg / Baden-Wuerttemberg","yes"
"Deutsche Bank","amenity=bank","Bünde","Bahnhofstraße 7-9","32257","Bünde","Nordrhein-Westfalen / North Rhine-Westphalia","no"
"Deutsche Bank","amenity=bank","Burg","Schartauer Straße 58b","39288","Burg","Sachsen-Anhalt / Saxony-Anhalt","yes"
"Deutsche Bank","amenity=bank","Burgdorf","Marktstraße 9","31303","Burgdorf","Niedersachsen / Lower Saxony","yes"
"Deutsche Bank","amenity=bank","Steinfurt","Leerer Straße 14","48565","Steinfurt","Nordrhein-Westfalen / North Rhine-Westphalia","no"
"Deutsche Bank","amenity=bank","Buxtehude","Lange Straße 47","21614","Buxtehude","Niedersachsen / Lower Saxony","yes"
"Deutsche Bank","amenity=bank","Castrop-Rauxel","Am Markt 6","44575","Castrop-Rauxel","Nordrhein-Westfalen / North Rhine-Westphalia","yes"
"Deutsche Bank","amenity=bank","Celle","Kanzleistraße 9","29221","Celle","Niedersachsen / Lower Saxony","yes"
"Deutsche Bank","amenity=bank","Chemnitz","Falkeplatz 2","9112","Chemnitz","Sachsen / Saxony","yes"
"Deutsche Bank","amenity=bank","Cloppenburg","Mühlenstraße 19","49661","Cloppenburg","Niedersachsen / Lower Saxony","yes"
"Deutsche Bank","amenity=bank","Coburg","Spitalgasse 19","96450","Coburg","Bayern / Bavaria","yes"
"Deutsche Bank","amenity=bank","Cottbus","Spremberger Straße 18","3046","Cottbus","Brandenburg","yes"
"Deutsche Bank","amenity=bank","Crimmitschau","Friedrich-August-Straße 2a","8451","Crimmitschau","Sachsen / Saxony","no"
"Deutsche Bank","amenity=bank","Dachau","Augsburger Straße 14","85221","Dachau","Bayern / Bavaria","no"
"Deutsche Bank","amenity=bank","Darmstadt-Eberstadt","Heidelberger Landstraße 236","64297","Darmstadt","Hessen","yes"
"Deutsche Bank","amenity=bank","Darmstadt","Luisenplatz 7","64283","Darmstadt","Hessen","yes"
"Deutsche Bank","amenity=bank","Datteln","Neumarkt 5c","45711","Datteln","Nordrhein-Westfalen / North Rhine-Westphalia","yes"
"Deutsche Bank","amenity=bank","Deggendorf","Michael-Fischer-Platz 6","94469","Deggendorf","Bayern / Bavaria","no"
"Deutsche Bank","amenity=bank","Delmenhorst","Lange Straße 7-9","27749","Delmenhorst","Niedersachsen / Lower Saxony","yes"
"Deutsche Bank","amenity=bank","Demmin","Treptower Straße 31","17109","Demmin","Mecklenburg-Vorpommern / Mecklenburg-Western Pomerania","no"
"Deutsche Bank","amenity=bank","Dessau","Kavalierstraße 20-22","6844","Dessau-Roßlau","Sachsen-Anhalt / Saxony-Anhalt","yes"
"Deutsche Bank","amenity=bank","Detmold","Bismarckstraße 3","32756","Detmold","Nordrhein-Westfalen / North Rhine-Westphalia","yes"
"Deutsche Bank","amenity=bank","Dietzenbach","Offenbacher Straße 35a","63128","Dietzenbach","Hessen","no"
"Deutsche Bank","amenity=bank","Dillenburg","Hindenburgstraße 15b","35683","Dillenburg","Hessen","yes"
"Deutsche Bank","amenity=bank","Dillingen (Bayern)","Kapuzinerstraße 36","89407","Dillingen (Bayern)","Bayern / Bavaria","yes"
"Deutsche Bank","amenity=bank","Dillingen (Saar)","Johannesstraße 37","66763","Dillingen (Saar)","Saarland","yes"
"Deutsche Bank","amenity=bank","Dorsten","Recklinghäuser Straße 5","46282","Dorsten","Nordrhein-Westfalen / North Rhine-Westphalia","yes"
"Deutsche Bank","amenity=bank","Dortmund-Aplerbeck","Köln-Berliner Straße 23","44287","Dortmund","Nordrhein-Westfalen / North Rhine-Westphalia","no"
"Deutsche Bank","amenity=bank","Dortmund","Betenstraße 11-17","44137","Dortmund","Nordrhein-Westfalen / North Rhine-Westphalia","yes"
"Deutsche Bank","amenity=bank","Dortmund-Eving","Evinger Straße 188","44339","Dortmund","Nordrhein-Westfalen / North Rhine-Westphalia","no"
"Deutsche Bank","amenity=bank","Dortmund-Hombruch","Harkortstraße 66","44225","Dortmund","Nordrhein-Westfalen / North Rhine-Westphalia","no"
"Deutsche Bank","amenity=bank","Dortmund-Lütgendortmund","Limbecker Straße 21","44388","Dortmund","Nordrhein-Westfalen / North Rhine-Westphalia","no"
"Deutsche Bank","amenity=bank","Dresden","Königsbrücker Straße 15","1099","Dresden","Sachsen / Saxony","no"
"Deutsche Bank","amenity=bank","Dresden-Blasewitz","Loschwitzer Straße 52","1309","Dresden","Sachsen / Saxony","yes"
"Deutsche Bank","amenity=bank","Dresden-Löbtau","Kesselsdorfer Straße 22","1159","Dresden","Sachsen / Saxony","yes"
"Deutsche Bank","amenity=bank","Dresden-Prager Straße","Prager Straße 8","1069","Dresden","Sachsen / Saxony","no"
"Deutsche Bank","amenity=bank","Dresden-Prohlis","Prohliser Allee 6","1239","Dresden","Sachsen / Saxony","yes"
"Deutsche Bank","amenity=bank","Viersen-Dülken","Venloer Straße 1","41751","Viersen","Nordrhein-Westfalen / North Rhine-Westphalia","no"
"Deutsche Bank","amenity=bank","Dülmen","Overbergplatz 3","48249","Dülmen","Nordrhein-Westfalen / North Rhine-Westphalia","no"
"Deutsche Bank","amenity=bank","Düren","Schenkelstraße 9","52349","Düren","Nordrhein-Westfalen / North Rhine-Westphalia","yes"
"Deutsche Bank","amenity=bank","Düsseldorf","Königsallee 45-47","40212","Düsseldorf","Nordrhein-Westfalen / North Rhine-Westphalia","yes"
"Deutsche Bank","amenity=bank","Düsseldorf-Benrath","Benrather Schloßallee 129","40597","Düsseldorf","Nordrhein-Westfalen / North Rhine-Westphalia","yes"
"Deutsche Bank","amenity=bank","Düsseldorf-Berliner Allee","Berliner Allee 61","40212","Düsseldorf","Nordrhein-Westfalen / North Rhine-Westphalia","yes"
"Deutsche Bank","amenity=bank","Düsseldorf-Bilk","Aachener Straße 2","40223","Düsseldorf","Nordrhein-Westfalen / North Rhine-Westphalia","no"
"Deutsche Bank","amenity=bank","Düsseldorf-Brehmplatz","Brehmplatz 4","40239","Düsseldorf","Nordrhein-Westfalen / North Rhine-Westphalia","no"
"Deutsche Bank","amenity=bank","Düsseldorf-Derendorf","Collenbachstraße 2","40476","Düsseldorf","Nordrhein-Westfalen / North Rhine-Westphalia","yes"
"Deutsche Bank","amenity=bank","Düsseldorf-Eller","Gumbertstraße 111","40229","Düsseldorf","Nordrhein-Westfalen / North Rhine-Westphalia","no"
"Deutsche Bank","amenity=bank","Düsseldorf-Flingern","Dorotheenstraße 1","40235","Düsseldorf","Nordrhein-Westfalen / North Rhine-Westphalia","yes"
"Deutsche Bank","amenity=bank","Düsseldorf-Gerresheim","Benderstraße 8","40625","Düsseldorf","Nordrhein-Westfalen / North Rhine-Westphalia","no"
"Deutsche Bank","amenity=bank","Düsseldorf-Golzheim","Kaiserswerther Straße 239","40474","Düsseldorf","Nordrhein-Westfalen / North Rhine-Westphalia","yes"
"Deutsche Bank","amenity=bank","Frankenthal","Bahnhofstraße 8","67227","Frankenthal","Rheinland-Pfalz / Rhineland-Palatinate","no"
"Deutsche Bank","amenity=bank","Frankfurt","Roßmarkt 18","60311","Frankfurt am Main","Hessen","yes"
"Deutsche Bank","amenity=bank","Frankfurt (Oder)","Karl-Marx-Straße 194","15230","Frankfurt (Oder)","Brandenburg","no"
"Deutsche Bank","amenity=bank","Frankfurt-Bockenheim","Leipziger Straße 17","60487","Frankfurt am Main","Hessen","no"
"Deutsche Bank","amenity=bank","Frankfurt-Bornheim","Berger Straße 130","60385","Frankfurt am Main","Hessen","yes"
"Deutsche Bank","amenity=bank","Frankfurt-Eschersheim","Eschersheimer Landstraße 299-301","60320","Frankfurt am Main","Hessen","yes"
"Deutsche Bank","amenity=bank","Frankfurt-Flughafen","Frankfurt Airport-Center (FAC)","60549","Frankfurt am Main","Hessen","yes"
"Deutsche Bank","amenity=bank","Frankfurt-Hauptbahnhof","Am Hauptbahnhof 12","60329","Frankfurt am Main","Hessen","no"
"Deutsche Bank","amenity=bank","Düsseldorf-Holthausen","Ritastraße 2","40589","Düsseldorf","Nordrhein-Westfalen / North Rhine-Westphalia","no"
"Deutsche Bank","amenity=bank","Düsseldorf-Oberbilk","Kölner Straße 295","40227","Düsseldorf","Nordrhein-Westfalen / North Rhine-Westphalia","yes"
"Deutsche Bank","amenity=bank","Düsseldorf-Oberkassel","Luegallee 100","40545","Düsseldorf","Nordrhein-Westfalen / North Rhine-Westphalia","no"
"Deutsche Bank","amenity=bank","Düsseldorf-Rath","Westfalenstraße 12","40472","Düsseldorf","Nordrhein-Westfalen / North Rhine-Westphalia","yes"
"Deutsche Bank","amenity=bank","Düsseldorf-Wehrhahn","Jacobistraße 1","40211","Düsseldorf","Nordrhein-Westfalen / North Rhine-Westphalia","yes"
"Deutsche Bank","amenity=bank","Duisburg-Altmarkt","Hamborner Altmarkt 4","47166","Duisburg","Nordrhein-Westfalen / North Rhine-Westphalia","no"
"Deutsche Bank","amenity=bank","Duisburg-Großenbaum","Angermunder Straße 13","47269","Duisburg","Nordrhein-Westfalen / North Rhine-Westphalia","no"
"Deutsche Bank","amenity=bank","Duisburg-Homberg","Gartenstraße 52","47198","Duisburg","Nordrhein-Westfalen / North Rhine-Westphalia","no"
"Deutsche Bank","amenity=bank","Duisburg-Huckingen","Mündelheimer Straße 11","47259","Duisburg","Nordrhein-Westfalen / North Rhine-Westphalia","yes"
"Deutsche Bank","amenity=bank","Duisburg","Königstraße 7-11","47051","Duisburg","Nordrhein-Westfalen / North Rhine-Westphalia","yes"
"Deutsche Bank","amenity=bank","Duisburg-Meiderich","Auf dem Damm 51","47137","Duisburg","Nordrhein-Westfalen / North Rhine-Westphalia","no"
"Deutsche Bank","amenity=bank","Duisburg-Neudorf","Oststraße 115","47057","Duisburg","Nordrhein-Westfalen / North Rhine-Westphalia","no"
"Deutsche Bank","amenity=bank","Duisburg-Rheinhausen","Krefelder Straße 19","47226","Duisburg","Nordrhein-Westfalen / North Rhine-Westphalia","yes"
"Deutsche Bank","amenity=bank","Duisburg-Walsum","Friedrich-Ebert-Straße 136-138","47179","Duisburg","Nordrhein-Westfalen / North Rhine-Westphalia","no"
"Deutsche Bank","amenity=bank","Eberswalde","Breite Straße 40","16225","Eberswalde","Brandenburg","yes"
"Deutsche Bank","amenity=bank","Einbeck","Neuer Markt 5","37574","Einbeck","Niedersachsen / Lower Saxony","yes"
"Deutsche Bank","amenity=bank","Eisenach","Karlsplatz 23","99817","Eisenach","Thüringen / Thuringia","no"
"Deutsche Bank","amenity=bank","Eisenberg","Großer Brühl 2","7607","Eisenberg","Thüringen / Thuringia","no"
"Deutsche Bank","amenity=bank","Eitorf","Markt 21","53783","Eitorf","Nordrhein-Westfalen / North Rhine-Westphalia","no"
"Deutsche Bank","amenity=bank","Elmshorn","Holstenplatz 3","25335","Elmshorn","Schleswig-Holstein","yes"
"Deutsche Bank","amenity=bank","Emmendingen","Theodor-Ludwig-Straße 24","79312","Emmendingen","Baden-Württemberg / Baden-Wuerttemberg","yes"
"Deutsche Bank","amenity=bank","Emmerich","Alter Markt 12","46446","Emmerich am Rhein","Nordrhein-Westfalen / North Rhine-Westphalia","yes"
"Deutsche Bank","amenity=bank","Erfurt","Juri-Gagarin-Ring 101","99084","Erfurt","Thüringen / Thuringia","yes"
"Deutsche Bank","amenity=bank","Erkelenz","Markt 18","41812","Erkelenz","Nordrhein-Westfalen / North Rhine-Westphalia","no"
"Deutsche Bank","amenity=bank","Erkrath","Bahnstraße 50","40699","Erkrath","Nordrhein-Westfalen / North Rhine-Westphalia","yes"
"Deutsche Bank","amenity=bank","Erlangen","Nürnberger Straße 37","91052","Erlangen","Bayern / Bavaria","yes"
"Deutsche Bank","amenity=bank","Eschwege","Forstgasse 26","37269","Eschwege","Hessen","yes"
"Deutsche Bank","amenity=bank","Eschweiler","Englerthstraße 12","52249","Eschweiler","Nordrhein-Westfalen / North Rhine-Westphalia","no"
"Deutsche Bank","amenity=bank","Essen-Altenessen","Altenessener Straße 388","45329","Essen","Nordrhein-Westfalen / North Rhine-Westphalia","yes"
"Deutsche Bank","amenity=bank","Essen-Borbeck","Marktstraße 37","45355","Essen","Nordrhein-Westfalen / North Rhine-Westphalia","yes"
"Deutsche Bank","amenity=bank","Essen-Bredeney","Bredeneyer Straße 156-158","45133","Essen","Nordrhein-Westfalen / North Rhine-Westphalia","no"
"Deutsche Bank","amenity=bank","Essen-Frohnhausen","Gervinusplatz 1","45145","Essen","Nordrhein-Westfalen / North Rhine-Westphalia","no"
"Deutsche Bank","amenity=bank","Essen-Heisingen","Heisinger Straße 499","45259","Essen","Nordrhein-Westfalen / North Rhine-Westphalia","no"
"Deutsche Bank","amenity=bank","Essen-Kettwig","Hauptstraße 43-61","45219","Essen","Nordrhein-Westfalen / North Rhine-Westphalia","no"
"Deutsche Bank","amenity=bank","Essen-Lindenallee","Lindenallee 29","45127","Essen","Nordrhein-Westfalen / North Rhine-Westphalia","yes"
"Deutsche Bank","amenity=bank","Essen-Rüttenscheid","Rüttenscheider Stern 7","45130","Essen","Nordrhein-Westfalen / North Rhine-Westphalia","yes"
"Deutsche Bank","amenity=bank","Essen-Steele","Kaiser-Otto-Platz 8","45276","Essen","Nordrhein-Westfalen / North Rhine-Westphalia","yes"
"Deutsche Bank","amenity=bank","Essen-Werden","Heckstraße 2","45239","Essen","Nordrhein-Westfalen / North Rhine-Westphalia","yes"
"Deutsche Bank","amenity=bank","Essen-Wohnstift Augustinum","Renteilichtung 8-10","45134","Essen","Nordrhein-Westfalen / North Rhine-Westphalia","yes"
"Deutsche Bank","amenity=bank","Esslingen","Am Hafenmarkt","73728","Esslingen","Baden-Württemberg / Baden-Wuerttemberg","yes"
"Deutsche Bank","amenity=bank","Ettlingen","Pforzheimer Straße 15","76275","Ettlingen","Baden-Württemberg / Baden-Wuerttemberg","no"
"Deutsche Bank","amenity=bank","Eutin","Peterstraße 14","23701","Eutin","Schleswig-Holstein","no"
"Deutsche Bank","amenity=bank","Falkensee","Potsdamer Straße 1-3","14612","Falkensee","Brandenburg","no"
"Deutsche Bank","amenity=bank","Flensburg","Rathausstraße 10-12","24937","Flensburg","Schleswig-Holstein","yes"
"Deutsche Bank","amenity=bank","Frankfurt-Hessen-Center","Borsigallee 26","60388","Frankfurt am Main","Hessen","yes"
"Deutsche Bank","amenity=bank","Frankfurt-Höchst","Königsteiner Straße 16","65929","Frankfurt am Main","Hessen","no"
"Deutsche Bank","amenity=bank","Frankfurt-Konstablerwache","Zeil 57","60313","Frankfurt am Main","Hessen","yes"
"Deutsche Bank","amenity=bank","Frankfurt-Lokalbahnhof","Dreieichstraße 59","60594","Frankfurt am Main","Hessen","yes"
"Deutsche Bank","amenity=bank","Frankfurt-Niederrad","Bruchfeldstraße 31","60528","Frankfurt am Main","Hessen","no"
"Deutsche Bank","amenity=bank","Frankfurt-Nordwest Zentrum","Tituscorso 2-4","60439","Frankfurt am Main","Hessen","yes"
"Deutsche Bank","amenity=bank","Frankfurt-Rödelheim","Radilostraße 33","60489","Frankfurt am Main","Hessen","yes"
"Deutsche Bank","amenity=bank","Frankfurt-Schweizer Platz","Schweizer Platz 49","60594","Frankfurt am Main","Hessen","yes"
"Deutsche Bank","amenity=bank","Frankfurt-Taunusanlage","Taunusanlage 12","60325","Frankfurt am Main","Hessen","yes"
"Deutsche Bank","amenity=bank","Frankfurt-Westend","Friedrichstraße 2-6","60323","Frankfurt am Main","Hessen","yes"
"Deutsche Bank","amenity=bank","Frechen","Hauptstraße 103","50226","Frechen","Nordrhein-Westfalen / North Rhine-Westphalia","yes"
"Deutsche Bank","amenity=bank","Freiberg","Platz der Oktoberopfer 5","9599","Freiberg","Sachsen / Saxony","no"
"Deutsche Bank","amenity=bank","Freiburg-Am Martinstor","Kaiser-Joseph-Straße 262","79098","Freiburg","Baden-Württemberg / Baden-Wuerttemberg","yes"
"Deutsche Bank","amenity=bank","Freiburg-Rotteckring","Rotteckring 3","79098","Freiburg","Baden-Württemberg / Baden-Wuerttemberg","yes"
"Deutsche Bank","amenity=bank","Freising","Untere Hauptstraße 36","85354","Freising","Bayern / Bavaria","no"
"Deutsche Bank","amenity=bank","Friedberg","Kaiserstraße 107","61169","Friedberg","Hessen","yes"
"Deutsche Bank","amenity=bank","Friedrichshafen","Karlstraße 13","88045","Friedrichshafen","Baden-Württemberg / Baden-Wuerttemberg","no"
"Deutsche Bank","amenity=bank","Fürstenfeldbruck","Hauptstraße 24","82256","Fürstenfeldbruck","Bayern / Bavaria","no"
"Deutsche Bank","amenity=bank","Fürstenwalde","Eisenbahnstraße 8","15517","Fürstenwalde","Brandenburg","yes"
"Deutsche Bank","amenity=bank","Fürth","Schwabacher Straße 32","90762","Fürth","Bayern / Bavaria","no"
"Deutsche Bank","amenity=bank","Fulda","Universitätsplatz 5","36037","Fulda","Hessen","yes"
"Deutsche Bank","amenity=bank","Gaggenau","Hauptstraße 55","76571","Gaggenau","Baden-Württemberg / Baden-Wuerttemberg","no"
"Deutsche Bank","amenity=bank","Garmisch-Partenkirchen","Bahnhofstraße 41","82467","Garmisch-Partenkirchen","Bayern / Bavaria","yes"
"Deutsche Bank","amenity=bank","Geesthacht","Bergedorfer Straße 40","21502","Geesthacht","Schleswig-Holstein","yes"
"Deutsche Bank","amenity=bank","Geislingen","Bahnhofstraße 3","73312","Geislingen","Baden-Württemberg / Baden-Wuerttemberg","no"
"Deutsche Bank","amenity=bank","Geldern","Hartstraße 38","47608","Geldern","Nordrhein-Westfalen / North Rhine-Westphalia","no"
"Deutsche Bank","amenity=bank","Gelsenkirchen-Buer","Springestraße 6","45894","Gelsenkirchen","Nordrhein-Westfalen / North Rhine-Westphalia","yes"
"Deutsche Bank","amenity=bank","Gelsenkirchen","Von-Oven-Straße 12-16","45879","Gelsenkirchen","Nordrhein-Westfalen / North Rhine-Westphalia","yes"
"Deutsche Bank","amenity=bank","Georgsmarienhütte","Oeseder Straße 102","49124","Georgsmarienhütte","Niedersachsen / Lower Saxony","yes"
"Deutsche Bank","amenity=bank","Gera","Humboldtstraße 26","7545","Gera","Thüringen / Thuringia","yes"
"Deutsche Bank","amenity=bank","Germering","Beethovenstraße 1","82110","Germering","Bayern / Bavaria","yes"
"Deutsche Bank","amenity=bank","Geseke","Bachstraße 4","59590","Geseke","Nordrhein-Westfalen / North Rhine-Westphalia","yes"
"Deutsche Bank","amenity=bank","Gevelsberg","Mittelstraße 26","58285","Gevelsberg","Nordrhein-Westfalen / North Rhine-Westphalia","no"
"Deutsche Bank","amenity=bank","Gießen","Marktplatz 4","35390","Gießen","Hessen","yes"
"Deutsche Bank","amenity=bank","Gifhorn","Steinweg 9","38518","Gifhorn","Niedersachsen / Lower Saxony","yes"
"Deutsche Bank","amenity=bank","Gladbeck","Schillerstraße 7","45964","Gladbeck","Nordrhein-Westfalen / North Rhine-Westphalia","yes"
"Deutsche Bank","amenity=bank","Goch","Bahnhofstraße 10","47574","Goch","Nordrhein-Westfalen / North Rhine-Westphalia","yes"
"Deutsche Bank","amenity=bank","Göppingen","Mörikestraße 9","73033","Göppingen","Baden-Württemberg / Baden-Wuerttemberg","yes"
"Deutsche Bank","amenity=bank","Görlitz","Demianiplatz 10","2826","Görlitz","Sachsen / Saxony","yes"
"Deutsche Bank","amenity=bank","Göttingen","Zindelstraße 3-5","37073","Göttingen","Niedersachsen / Lower Saxony","yes"
"Deutsche Bank","amenity=bank","Goslar","Fischemäkerstraße 13","38640","Goslar","Niedersachsen / Lower Saxony","no"
"Deutsche Bank","amenity=bank","Gotha","Ekhofplatz 2a","99867","Gotha","Thüringen / Thuringia","yes"
"Deutsche Bank","amenity=bank","Greifswald","Markt 2","17489","Greifswald","Mecklenburg-Vorpommern / Mecklenburg-Western Pomerania","yes"
"Deutsche Bank","amenity=bank","Greiz","Carolinenstraße 2","7973","Greiz","Thüringen / Thuringia","no"
"Deutsche Bank","amenity=bank","Greven","Alte Münsterstraße 1-3","48268","Greven","Nordrhein-Westfalen / North Rhine-Westphalia","yes"
"Deutsche Bank","amenity=bank","Grevenbroich","Bahnstraße 2-4","41515","Grevenbroich","Nordrhein-Westfalen / North Rhine-Westphalia","yes"
"Deutsche Bank","amenity=bank","Gronau / Westfalen","Schulstraße 8","48599","Gronau","Nordrhein-Westfalen / North Rhine-Westphalia","yes"
"Deutsche Bank","amenity=bank","Köln-Braunsfeld","Aachener Straße 392-394","50933","Köln","Nordrhein-Westfalen / North Rhine-Westphalia","no"
"Deutsche Bank","amenity=bank","Köln-Dellbrück","Dellbrücker Hauptstraße 100","51069","Köln","Nordrhein-Westfalen / North Rhine-Westphalia","no"
"Deutsche Bank","amenity=bank","Köln-Ebertplatz","Ebertplatz 15-17","50668","Köln","Nordrhein-Westfalen / North Rhine-Westphalia","yes"
"Deutsche Bank","amenity=bank","Grünwald","Emil-Geis-Straße 2","82031","Grünwald","Bayern / Bavaria","no"
"Deutsche Bank","amenity=bank","Güstrow","Markt 21","18273","Güstrow","Mecklenburg-Vorpommern / Mecklenburg-Western Pomerania","yes"
"Deutsche Bank","amenity=bank","Gütersloh","Stohlmannplatz 2","33330","Gütersloh","Nordrhein-Westfalen / North Rhine-Westphalia","yes"
"Deutsche Bank","amenity=bank","Gummersbach","Hindenburgstraße 21-25","51643","Gummersbach","Nordrhein-Westfalen / North Rhine-Westphalia","yes"
"Deutsche Bank","amenity=bank","Haan","Kaiserstraße 35","42781","Haan","Nordrhein-Westfalen / North Rhine-Westphalia","yes"
"Deutsche Bank","amenity=bank","Hagen","Bahnhofstraße 1-3","58095","Hagen","Nordrhein-Westfalen / North Rhine-Westphalia","yes"
"Deutsche Bank","amenity=bank","Hagen-Hohenlimburg","Stennertstraße 9","58119","Hagen","Nordrhein-Westfalen / North Rhine-Westphalia","yes"
"Deutsche Bank","amenity=bank","Hagenow","Grubenstraße 7","19230","Hagenow","Mecklenburg-Vorpommern / Mecklenburg-Western Pomerania","yes"
"Deutsche Bank","amenity=bank","Halle","Leipziger Straße 87-92","6108","Halle (Saale)","Sachsen-Anhalt / Saxony-Anhalt","yes"
"Deutsche Bank","amenity=bank","Hamburg-Adolphsplatz","Adolphsplatz 7","20457","Hamburg","Hamburg","no"
"Deutsche Bank","amenity=bank","Hamburg-Altona","Paul-Nevermann-Platz 5","22765","Hamburg","Hamburg","yes"
"Deutsche Bank","amenity=bank","Hamburg-Bergedorf","Weidenbaumsweg 4","21029","Hamburg","Hamburg","yes"
"Deutsche Bank","amenity=bank","Hamburg-Billstedt","Möllner Landstraße 11a","22111","Hamburg","Hamburg","yes"
"Deutsche Bank","amenity=bank","Hamburg-Blankenese","Blankeneser Bahnhofstraße 52-54","22587","Hamburg","Hamburg","yes"
"Deutsche Bank","amenity=bank","Hamburg-Bramfeld","Bramfelder Chaussee 316","22177","Hamburg","Hamburg","yes"
"Deutsche Bank","amenity=bank","Hamburg-Eidelstedt","Alte Elbgaustraße 1","22523","Hamburg","Hamburg","yes"
"Deutsche Bank","amenity=bank","Hamburg-Eimsbüttel","Osterstraße 5","20259","Hamburg","Hamburg","yes"
"Deutsche Bank","amenity=bank","Hamburg-Eppendorf","Eppendorfer Landstraße 70","20249","Hamburg","Hamburg","no"
"Deutsche Bank","amenity=bank","Hamburg-Fuhlsbüttel","Erdkampsweg 34","22335","Hamburg","Hamburg","yes"
"Deutsche Bank","amenity=bank","Hamburg-Grindel","Grindelallee 153","20146","Hamburg","Hamburg","yes"
"Deutsche Bank","amenity=bank","Hamburg-Hafencity","Überseeboulevard 4-10","20457","Hamburg","Hamburg","yes"
"Deutsche Bank","amenity=bank","Hamburg-Harburg","Harburger Rathausstraße 44","21073","Hamburg","Hamburg","yes"
"Deutsche Bank","amenity=bank","Hamburg-Hohenfelde","Lübecker Straße 131","22087","Hamburg","Hamburg","no"
"Deutsche Bank","amenity=bank","Hamburg-Jungfernstieg","Jungfernstieg 49","20354","Hamburg","Hamburg","no"
"Deutsche Bank","amenity=bank","Hamburg-Klosterstern","Klosterstern 1","20149","Hamburg","Hamburg","no"
"Deutsche Bank","amenity=bank","Hamburg-Niendorf","Tibarg 32","22459","Hamburg","Hamburg","yes"
"Deutsche Bank","amenity=bank","Hamburg-Othmarschen","Waitzstraße 8","22607","Hamburg","Hamburg","yes"
"Deutsche Bank","amenity=bank","Hamburg-Pöseldorf","Mittelweg 130","20148","Hamburg","Hamburg","yes"
"Deutsche Bank","amenity=bank","Hamburg-Poppenbüttel","Heegbarg 4","22391","Hamburg","Hamburg","yes"
"Deutsche Bank","amenity=bank","Hamburg-Rahlstedt","Rahlstedter Bahnhofstraße 7","22143","Hamburg","Hamburg","yes"
"Deutsche Bank","amenity=bank","Hamburg-Schulterblatt","Schulterblatt 58","20357","Hamburg","Hamburg","yes"
"Deutsche Bank","amenity=bank","Hamburg-Seeburg","Spitalerstraße 16","20095","Hamburg","Hamburg","yes"
"Deutsche Bank","amenity=bank","Hamburg-Uhlenhorst","Hofweg 70","22085","Hamburg","Hamburg","yes"
"Deutsche Bank","amenity=bank","Hamburg-Volksdorf","Im Alten Dorfe 25-27","22359","Hamburg","Hamburg","no"
"Deutsche Bank","amenity=bank","Hamburg-Wandsbek","Wandsbeker Marktstraße 123","22041","Hamburg","Hamburg","yes"
"Deutsche Bank","amenity=bank","Hamburg-Wilhelmsburg","Veringstraße 30","21107","Hamburg","Hamburg","no"
"Deutsche Bank","amenity=bank","Hamburg-Winterhude","Winterhuder Marktplatz 13-15","22299","Hamburg","Hamburg","no"
"Deutsche Bank","amenity=bank","Hameln","Am Markt 2-3","31785","Hameln","Niedersachsen / Lower Saxony","no"
"Deutsche Bank","amenity=bank","Hamm","Bahnhofstraße 5-7","59065","Hamm","Nordrhein-Westfalen / North Rhine-Westphalia","yes"
"Deutsche Bank","amenity=bank","Hanau","Langstraße 60","63450","Hanau","Hessen","yes"
"Deutsche Bank","amenity=bank","Hannover-Georgsplatz","Georgsplatz 20","30159","Hannover","Niedersachsen / Lower Saxony","yes"
"Deutsche Bank","amenity=bank","Hannover-Buchholz","Podbielskistraße 348-350","30659","Hannover","Niedersachsen / Lower Saxony","no"
"Deutsche Bank","amenity=bank","Hannover-Döhren","Peiner Straße 1","30519","Hannover","Niedersachsen / Lower Saxony","no"
"Deutsche Bank","amenity=bank","Hannover-Engelbosteler Damm","Kopernikusstraße 1","30167","Hannover","Niedersachsen / Lower Saxony","yes"
"Deutsche Bank","amenity=bank","Hannover-Kleefeld/Kirchrode","Kirchröder Straße 103-104","30625","Hannover","Niedersachsen / Lower Saxony","yes"
"Deutsche Bank","amenity=bank","Hannover-Linden","Falkenstraße 3","30449","Hannover","Niedersachsen / Lower Saxony","no"
"Deutsche Bank","amenity=bank","Hannover-List","Lister Meile 76","30161","Hannover","Niedersachsen / Lower Saxony","yes"
"Deutsche Bank","amenity=bank","Hannover-Misburg","Waldstraße 1","30629","Hannover","Niedersachsen / Lower Saxony","yes"
"Deutsche Bank","amenity=bank","Hattingen","Heggerstraße 54","45525","Hattingen","Nordrhein-Westfalen / North Rhine-Westphalia","no"
"Deutsche Bank","amenity=bank","Heidelberg-Adenauerplatz","Adenauerplatz 1","69115","Heidelberg","Baden-Württemberg / Baden-Wuerttemberg","no"
"Deutsche Bank","amenity=bank","Heidenheim","Schnaitheimer Straße 13","89520","Heidenheim","Baden-Württemberg / Baden-Wuerttemberg","yes"
"Deutsche Bank","amenity=bank","Heilbronn","Moltkestraße 6-8","74072","Heilbronn","Baden-Württemberg / Baden-Wuerttemberg","no"
"Deutsche Bank","amenity=bank","Helmstedt","Papenberg 29","38350","Helmstedt","Niedersachsen / Lower Saxony","yes"
"Deutsche Bank","amenity=bank","Hemer","Poststraße 22","58675","Hemer","Nordrhein-Westfalen / North Rhine-Westphalia","yes"
"Deutsche Bank","amenity=bank","Hennigsdorf","Havelpassage 14","16761","Hennigsdorf","Brandenburg","yes"
"Deutsche Bank","amenity=bank","Herford","Berliner Straße 3","32052","Herford","Nordrhein-Westfalen / North Rhine-Westphalia","yes"
"Deutsche Bank","amenity=bank","Herne","An der Kreuzkirche 1-3","44623","Herne","Nordrhein-Westfalen / North Rhine-Westphalia","yes"
"Deutsche Bank","amenity=bank","Herne-Wanne-Eickel","Hauptstraße 221","44649","Herne","Nordrhein-Westfalen / North Rhine-Westphalia","no"
"Deutsche Bank","amenity=bank","Herten","Kaiserstraße 62","45699","Herten","Nordrhein-Westfalen / North Rhine-Westphalia","no"
"Deutsche Bank","amenity=bank","Heusenstamm","Frankfurter Straße 114","63150","Heusenstamm","Hessen","yes"
"Deutsche Bank","amenity=bank","Hilden","Mittelstraße 97","40721","Hilden","Nordrhein-Westfalen / North Rhine-Westphalia","yes"
"Deutsche Bank","amenity=bank","Hildesheim","Angoulêmeplatz 1","31134","Hildesheim","Niedersachsen / Lower Saxony","no"
"Deutsche Bank","amenity=bank","Höxter","Weserstraße 10","37671","Höxter","Nordrhein-Westfalen / North Rhine-Westphalia","yes"
"Deutsche Bank","amenity=bank","Hofheim","Hauptstraße 58-60","65719","Hofheim","Hessen","no"
"Deutsche Bank","amenity=bank","Homburg/Saar","Talstraße 39","66424","Homburg","Saarland","yes"
"Deutsche Bank","amenity=bank","Hoyerswerda","Albert-Einstein-Straße 47b","2977","Hoyerswerda","Sachsen / Saxony","yes"
"Deutsche Bank","amenity=bank","Hückelhoven","Parkhofstraße 111","41836","Hückelhoven","Nordrhein-Westfalen / North Rhine-Westphalia","yes"
"Deutsche Bank","amenity=bank","Husum","Markt 28-30","25813","Husum","Schleswig-Holstein","no"
"Deutsche Bank","amenity=bank","Idar-Oberstein","Hauptstraße 71","55743","Idar-Oberstein","Rheinland-Pfalz / Rhineland-Palatinate","yes"
"Deutsche Bank","amenity=bank","Ilmenau","Marktstraße 1-3","98693","Ilmenau","Thüringen / Thuringia","yes"
"Deutsche Bank","amenity=bank","Ingelheim","Bahnhofstraße 16","55218","Ingelheim","Rheinland-Pfalz / Rhineland-Palatinate","yes"
"Deutsche Bank","amenity=bank","Ingolstadt-Ludwigstraße","Ludwigstraße 24","85049","Ingolstadt","Bayern / Bavaria","yes"
"Deutsche Bank","amenity=bank","Hamburg-Adolphsplatz International","Adolphsplatz 7","20457","Hamburg","Hamburg","no"
"Deutsche Bank","amenity=bank","Iserlohn","Nordengraben 2","58636","Iserlohn","Nordrhein-Westfalen / North Rhine-Westphalia","yes"
"Deutsche Bank","amenity=bank","Itzehoe","Berliner Platz 1","25524","Itzehoe","Schleswig-Holstein","yes"
"Deutsche Bank","amenity=bank","Jena","Schloßgasse 20","7743","Jena","Thüringen / Thuringia","yes"
"Deutsche Bank","amenity=bank","Jülich","Kölnstraße 3","52428","Jülich","Nordrhein-Westfalen / North Rhine-Westphalia","yes"
"Deutsche Bank","amenity=bank","Jüterbog","Pferdestraße 54","14913","Jüterbog","Brandenburg","no"
"Deutsche Bank","amenity=bank","Kaarst","Maubisstraße 44","41564","Kaarst","Nordrhein-Westfalen / North Rhine-Westphalia","yes"
"Deutsche Bank","amenity=bank","Kaiserslautern","Stiftsplatz 13","67655","Kaiserslautern","Rheinland-Pfalz / Rhineland-Palatinate","yes"
"Deutsche Bank","amenity=bank","Nettetal-Kaldenkirchen","Kehrstraße 65","41334","Nettetal","Nordrhein-Westfalen / North Rhine-Westphalia","yes"
"Deutsche Bank","amenity=bank","Köln-Kalk","Kalker Hauptstraße 123-125","51103","Köln","Nordrhein-Westfalen / North Rhine-Westphalia","yes"
"Deutsche Bank","amenity=bank","Kaltenkirchen","Holstenstraße 18","24568","Kaltenkirchen","Schleswig-Holstein","yes"
"Deutsche Bank","amenity=bank","Kamp-Lintfort","Moerser Straße 234","47475","Kamp-Lintfort","Nordrhein-Westfalen / North Rhine-Westphalia","no"
"Deutsche Bank","amenity=bank","Karlsruhe-Kaiserstraße","Kaiserstraße 90","76133","Karlsruhe","Baden-Württemberg / Baden-Wuerttemberg","no"
"Deutsche Bank","amenity=bank","Kassel","Kölnische Straße 13-15","34117","Kassel","Hessen","yes"
"Deutsche Bank","amenity=bank","Kassel-Wilhelmshöhe","Wilhelmshöher Allee 259","34131","Kassel","Hessen","yes"
"Deutsche Bank","amenity=bank","Kaufbeuren","Kaiser-Max-Straße 9-11","87600","Kaufbeuren","Bayern / Bavaria","no"
"Deutsche Bank","amenity=bank","Kehl","Hauptstraße 1","77694","Kehl","Baden-Württemberg / Baden-Wuerttemberg","yes"
"Deutsche Bank","amenity=bank","Kempen","Engerstraße 42","47906","Kempen","Nordrhein-Westfalen / North Rhine-Westphalia","no"
"Deutsche Bank","amenity=bank","Kempten","Fischerstraße 21","87435","Kempten","Bayern / Bavaria","yes"
"Deutsche Bank","amenity=bank","Kevelaer","Peter-Plümpe-Platz 12","47623","Kevelaer","Nordrhein-Westfalen / North Rhine-Westphalia","yes"
"Deutsche Bank","amenity=bank","Kiel-Holtenauer Straße","Holtenauer Straße 90-92","24105","Kiel","Schleswig-Holstein","yes"
"Deutsche Bank","amenity=bank","Kiel","Rathausplatz 1","24103","Kiel","Schleswig-Holstein","yes"
"Deutsche Bank","amenity=bank","Kirchheim","Turmstraße 3","73230","Kirchheim","Baden-Württemberg / Baden-Wuerttemberg","yes"
"Deutsche Bank","amenity=bank","Kleve","Herzogstraße 30","47533","Kleve","Nordrhein-Westfalen / North Rhine-Westphalia","yes"
"Deutsche Bank","amenity=bank","Koblenz","Löhrstraße 66d","56068","Koblenz","Rheinland-Pfalz / Rhineland-Palatinate","no"
"Deutsche Bank","amenity=bank","Köln-Andreaskloster","An den Dominikanern 11-27","50668","Köln","Nordrhein-Westfalen / North Rhine-Westphalia","no"
"Deutsche Bank","amenity=bank","Köln-Hohenzollernring","Hohenzollernring 14","50672","Köln","Nordrhein-Westfalen / North Rhine-Westphalia","yes"
"Deutsche Bank","amenity=bank","Köln-Lindenthal","Dürener Straße 230","50931","Köln","Nordrhein-Westfalen / North Rhine-Westphalia","yes"
"Deutsche Bank","amenity=bank","Köln-Mülheim","Eulenbergstraße 1-3","51065","Köln","Nordrhein-Westfalen / North Rhine-Westphalia","yes"
"Deutsche Bank","amenity=bank","Köln-Neu-Ehrenfeld","Landmannstraße 16-18","50825","Köln","Nordrhein-Westfalen / North Rhine-Westphalia","yes"
"Deutsche Bank","amenity=bank","Köln-Nippes","Neusser Straße 255","50733","Köln","Nordrhein-Westfalen / North Rhine-Westphalia","no"
"Deutsche Bank","amenity=bank","Köln-Nord","Longericher Straße 441","50739","Köln","Nordrhein-Westfalen / North Rhine-Westphalia","yes"
"Deutsche Bank","amenity=bank","Köln-Porz","Friedrich-Ebert-Platz 1","51143","Köln","Nordrhein-Westfalen / North Rhine-Westphalia","no"
"Deutsche Bank","amenity=bank","Köln-Rodenkirchen","Hauptstraße 87","50996","Köln","Nordrhein-Westfalen / North Rhine-Westphalia","yes"
"Deutsche Bank","amenity=bank","Köln-Severinstor","Ubierring 1","50678","Köln","Nordrhein-Westfalen / North Rhine-Westphalia","yes"
"Deutsche Bank","amenity=bank","Köln-Sülz","Zülpicher Straße 321","50937","Köln","Nordrhein-Westfalen / North Rhine-Westphalia","yes"
"Deutsche Bank","amenity=bank","Köln-Weiden","Aachener Straße 1212-1212a","50859","Köln","Nordrhein-Westfalen / North Rhine-Westphalia","yes"
"Deutsche Bank","amenity=bank","Königs Wusterhausen","Bahnhofstraße 18","15711","Königs Wusterhausen","Brandenburg","no"
"Deutsche Bank","amenity=bank","Königsbrunn","Bürgermeister-Wohlfarth-Straße 72","86343","Königsbrunn","Bayern / Bavaria","yes"
"Deutsche Bank","amenity=bank","Königstein","Hauptstraße 5","61462","Königstein","Hessen","yes"
"Deutsche Bank","amenity=bank","Konstanz-Bahnhofstraße","Bahnhofstraße 1","78462","Konstanz","Baden-Württemberg / Baden-Wuerttemberg","no"
"Deutsche Bank","amenity=bank","Korschenbroich","Sebastianusstraße 8-12","41352","Korschenbroich","Nordrhein-Westfalen / North Rhine-Westphalia","no"
"Deutsche Bank","amenity=bank","Krefeld-Bismarckplatz","Bismarckplatz 14","47799","Krefeld","Nordrhein-Westfalen / North Rhine-Westphalia","no"
"Deutsche Bank","amenity=bank","Krefeld-Fischeln","Kölner Straße 566","47807","Krefeld","Nordrhein-Westfalen / North Rhine-Westphalia","yes"
"Deutsche Bank","amenity=bank","Krefeld","Ostwall 131","47798","Krefeld","Nordrhein-Westfalen / North Rhine-Westphalia","yes"
"Deutsche Bank","amenity=bank","Kronberg","Frankfurter Straße 13a","61476","Kronberg","Hessen","yes"
"Deutsche Bank","amenity=bank","Lahr","Schillerstraße 2","77933","Lahr","Baden-Württemberg / Baden-Wuerttemberg","yes"
"Deutsche Bank","amenity=bank","Landau","Xylanderstraße 1","76829","Landau","Rheinland-Pfalz / Rhineland-Palatinate","yes"
"Deutsche Bank","amenity=bank","Landsberg","Hubert-von-Herkomer-Straße 114","86899","Landsberg","Bayern / Bavaria","yes"
"Deutsche Bank","amenity=bank","Landshut","Bahnhofsplatz 1a","84032","Landshut","Bayern / Bavaria","no"
"Deutsche Bank","amenity=bank","Langen","Bahnstraße 21","63225","Langen","Hessen","yes"
"Deutsche Bank","amenity=bank","Langenfeld","Hauptstraße 85a","40764","Langenfeld","Nordrhein-Westfalen / North Rhine-Westphalia","yes"
"Deutsche Bank","amenity=bank","Langenhagen","Walsroder Straße 20","30851","Langenhagen","Niedersachsen / Lower Saxony","yes"
"Deutsche Bank","amenity=bank","Lauterbach","Marktplatz 22-24","36341","Lauterbach","Hessen","yes"
"Deutsche Bank","amenity=bank","Leer","Mühlenstraße 84","26789","Leer","Niedersachsen / Lower Saxony","yes"
"Deutsche Bank","amenity=bank","Leipzig-Gohlis","Lindenthaler Straße 24","4155","Leipzig","Sachsen / Saxony","yes"
"Deutsche Bank","amenity=bank","Leipzig-Mitte","Martin-Luther-Ring 2","4109","Leipzig","Sachsen / Saxony","yes"
"Deutsche Bank","amenity=bank","Leipzig-Nordost","Gorkistraße 110","4347","Leipzig","Sachsen / Saxony","no"
"Deutsche Bank","amenity=bank","Leipzig-West","Stuttgarter Allee 29","4209","Leipzig","Sachsen / Saxony","yes"
"Deutsche Bank","amenity=bank","Lengerich","Bahnhofstraße 17","49525","Lengerich","Nordrhein-Westfalen / North Rhine-Westphalia","yes"
"Deutsche Bank","amenity=bank","Leonberg","Marktplatz 1","71229","Leonberg","Baden-Württemberg / Baden-Wuerttemberg","yes"
"Deutsche Bank","amenity=bank","Leverkusen","Friedrich-Ebert-Platz 4","51373","Leverkusen","Nordrhein-Westfalen / North Rhine-Westphalia","yes"
"Deutsche Bank","amenity=bank","Leverkusen-Opladen","Birkenbergstraße 6-10","51379","Leverkusen","Nordrhein-Westfalen / North Rhine-Westphalia","no"
"Deutsche Bank","amenity=bank","Limbach-Oberfrohna","Hechinger Straße 3","9212","Limbach-Oberfrohna","Sachsen / Saxony","yes"
"Deutsche Bank","amenity=bank","Limburg","Hospitalstraße 5","65549","Limburg","Hessen","no"
"Deutsche Bank","amenity=bank","Limburgerhof","Speyerer Straße 36","67117","Limburgerhof","Rheinland-Pfalz / Rhineland-Palatinate","no"
"Deutsche Bank","amenity=bank","Lingen","Am Markt 17","49808","Lingen","Niedersachsen / Lower Saxony","yes"
"Deutsche Bank","amenity=bank","Lippstadt","Woldemei 17","59555","Lippstadt","Nordrhein-Westfalen / North Rhine-Westphalia","yes"
"Deutsche Bank","amenity=bank","Lörrach","Senser Platz 2","79539","Lörrach","Baden-Württemberg / Baden-Wuerttemberg","yes"
"Deutsche Bank","amenity=bank","Ludwigsburg","Myliusstraße 16","71638","Ludwigsburg","Baden-Württemberg / Baden-Wuerttemberg","yes"
"Deutsche Bank","amenity=bank","Ludwigshafen-Hemshof","Kurze Straße 1","67063","Ludwigshafen","Rheinland-Pfalz / Rhineland-Palatinate","yes"
"Deutsche Bank","amenity=bank","Ludwigshafen-Ludwigsplatz","Ludwigsplatz 1","67059","Ludwigshafen","Rheinland-Pfalz / Rhineland-Palatinate","yes"
"Deutsche Bank","amenity=bank","Ludwigslust","Lindenstraße 29","19288","Ludwigslust","Mecklenburg-Vorpommern / Mecklenburg-Western Pomerania","yes"
"Deutsche Bank","amenity=bank","Lübbecke","Lange Straße 11","32312","Lübbecke","Nordrhein-Westfalen / North Rhine-Westphalia","no"
"Deutsche Bank","amenity=bank","Lübeck-Kohlmarkt","Kohlmarkt 7-15","23552","Lübeck","Schleswig-Holstein","yes"
"Deutsche Bank","amenity=bank","Lübeck-Kaufhof","Am Kaufhof 3","23566","Lübeck","Schleswig-Holstein","yes"
"Deutsche Bank","amenity=bank","Lübeck-Kücknitz","Kücknitzer Hauptstraße 3","23569","Lübeck","Schleswig-Holstein","yes"
"Deutsche Bank","amenity=bank","Lübeck-Moislinger Allee","Moislinger Allee 53-55","23558","Lübeck","Schleswig-Holstein","yes"
"Deutsche Bank","amenity=bank","Lübeck-Oberbüssauer Weg","Oberbüssauer Weg 4","23560","Lübeck","Schleswig-Holstein","yes"
"Deutsche Bank","amenity=bank","Lübeck-Ratzeburger Allee","Ratzeburger Allee 47-47a","23562","Lübeck","Schleswig-Holstein","yes"
"Deutsche Bank","amenity=bank","Lübeck-Ziegelstraße","Ziegelstraße 39","23556","Lübeck","Schleswig-Holstein","yes"
"Deutsche Bank","amenity=bank","Lüdenscheid","Altenaer Straße 14","58507","Lüdenscheid","Nordrhein-Westfalen / North Rhine-Westphalia","yes"
"Deutsche Bank","amenity=bank","Lüneburg","Bardowicker Straße 6","21335","Lüneburg","Niedersachsen / Lower Saxony","yes"
"Deutsche Bank","amenity=bank","Lünen","Münsterstraße 5","44534","Lünen","Nordrhein-Westfalen / North Rhine-Westphalia","yes"
"Deutsche Bank","amenity=bank","Magdeburg","Otto-von-Guericke-Straße 12","39104","Magdeburg","Sachsen-Anhalt / Saxony-Anhalt","yes"
"Deutsche Bank","amenity=bank","Sulzbach-MTZ","Main-Taunus-Zentrum","65843","Sulzbach","Hessen","yes"
"Deutsche Bank","amenity=bank","Mainz-Gonsenheim","Breite Straße 41","55124","Mainz","Rheinland-Pfalz / Rhineland-Palatinate","yes"
"Deutsche Bank","amenity=bank","Mainz-Ludwigsstraße","Ludwigsstraße 8-10","55116","Mainz","Rheinland-Pfalz / Rhineland-Palatinate","yes"
"Deutsche Bank","amenity=bank","Mannheim-Wasserturm","P 7, 10-15","68161","Mannheim","Baden-Württemberg / Baden-Wuerttemberg","yes"
"Deutsche Bank","amenity=bank","Mannheim-Käfertal","Rollbühlstraße 80","68309","Mannheim","Baden-Württemberg / Baden-Wuerttemberg","no"
"Deutsche Bank","amenity=bank","Mannheim-Neckarau","Friedrichstraße 3-5","68199","Mannheim","Baden-Württemberg / Baden-Wuerttemberg","no"
"Deutsche Bank","amenity=bank","Mannheim-Neckarstadt","Max-Joseph-Straße 1","68167","Mannheim","Baden-Württemberg / Baden-Wuerttemberg","no"
"Deutsche Bank","amenity=bank","Mannheim-Seckenheim","Seckenheimer Hauptstraße 72","68239","Mannheim","Baden-Württemberg / Baden-Wuerttemberg","no"
"Deutsche Bank","amenity=bank","Mannheim-Waldhof","Jakob-Faulhaber-Straße 11","68305","Mannheim","Baden-Württemberg / Baden-Wuerttemberg","no"
"Deutsche Bank","amenity=bank","Marburg","Biegenstraße 2","35037","Marburg","Hessen","yes"
"Deutsche Bank","amenity=bank","Marl-Hüls","Hülsstraße 8","45772","Marl-Hüls","Nordrhein-Westfalen / North Rhine-Westphalia","yes"
"Deutsche Bank","amenity=bank","Meerbusch","Theodor-Hellmich-Straße 8","40667","Meerbusch","Nordrhein-Westfalen / North Rhine-Westphalia","yes"
"Deutsche Bank","amenity=bank","Meißen","Roßmarkt 5","1662","Meißen","Sachsen / Saxony","yes"
"Deutsche Bank","amenity=bank","Memmingen","Marktplatz 7","87700","Memmingen","Bayern / Bavaria","yes"
"Deutsche Bank","amenity=bank","Menden","Unnaer Straße 6","58706","Menden","Nordrhein-Westfalen / North Rhine-Westphalia","no"
"Deutsche Bank","amenity=bank","Merseburg","Große Ritterstraße 1c-d","6217","Merseburg","Sachsen-Anhalt / Saxony-Anhalt","no"
"Deutsche Bank","amenity=bank","Merzig","Poststraße 5","66663","Merzig","Saarland","no"
"Deutsche Bank","amenity=bank","Mettmann","Schwarzbachstraße 8","40822","Mettmann","Nordrhein-Westfalen / North Rhine-Westphalia","yes"
"Deutsche Bank","amenity=bank","Mönchengladbach","Bismarckplatz 1-3","41061","Mönchengladbach","Nordrhein-Westfalen / North Rhine-Westphalia","yes"
"Deutsche Bank","amenity=bank","Mönchengladbach-Odenkirchen","Burgfreiheit 78","41199","Mönchengladbach","Nordrhein-Westfalen / North Rhine-Westphalia","yes"
"Deutsche Bank","amenity=bank","Mönchengladbach-Rheydt","Odenkirchener Straße 43","41236","Mönchengladbach","Nordrhein-Westfalen / North Rhine-Westphalia","yes"
"Deutsche Bank","amenity=bank","Minden","Domstraße 2","32423","Minden","Nordrhein-Westfalen / North Rhine-Westphalia","yes"
"Deutsche Bank","amenity=bank","Mittweida","Markt 21-23","9648","Mittweida","Sachsen / Saxony","no"
"Deutsche Bank","amenity=bank","Mölln","Hauptstraße 33","23879","Mölln","Schleswig-Holstein","yes"
"Deutsche Bank","amenity=bank","Moers","Neuer Wall 12","47441","Moers","Nordrhein-Westfalen / North Rhine-Westphalia","yes"
"Deutsche Bank","amenity=bank","Nürnberg-Ostendstraße","Ostendstraße 230","90482","Nürnberg","Bayern / Bavaria","yes"
"Deutsche Bank","amenity=bank","Nürnberg-Röthenbach/Schweinau","Dombühler Straße 2","90449","Nürnberg","Bayern / Bavaria","yes"
"Deutsche Bank","amenity=bank","Oberhausen","Paul-Reusch-Straße 43","46045","Oberhausen","Nordrhein-Westfalen / North Rhine-Westphalia","yes"
"Deutsche Bank","amenity=bank","Oberhausen-Sterkrade","Steinbrinkstraße 222a","46145","Oberhausen","Nordrhein-Westfalen / North Rhine-Westphalia","no"
"Deutsche Bank","amenity=bank","Oberursel","Kumeliusstraße 6-8","61440","Oberursel","Hessen","no"
"Deutsche Bank","amenity=bank","Öhringen","Bismarckstraße 22","74613","Öhringen","Baden-Württemberg / Baden-Wuerttemberg","no"
"Deutsche Bank","amenity=bank","Offenbach","Kaiserstraße 66-68","63065","Offenbach","Hessen","yes"
"Deutsche Bank","amenity=bank","Offenburg","Hauptstraße 42","77652","Offenburg","Baden-Württemberg / Baden-Wuerttemberg","yes"
"Deutsche Bank","amenity=bank","Oldenburg","Staugraben 10","26122","Oldenburg","Niedersachsen / Lower Saxony","yes"
"Deutsche Bank","amenity=bank","Monheim","Rathausplatz 2a","40789","Monheim am Rhein","Nordrhein-Westfalen / North Rhine-Westphalia","yes"
"Deutsche Bank","amenity=bank","Mühlhausen","Untermarkt 27","99974","Mühlhausen","Thüringen / Thuringia","yes"
"Deutsche Bank","amenity=bank","Mülheim (Ruhr)","Wallstraße 6","45468","Mülheim (Ruhr)","Nordrhein-Westfalen / North Rhine-Westphalia","yes"
"Deutsche Bank","amenity=bank","München-Arabellapark","Arabellastraße 11","81925","München","Bayern / Bavaria","yes"
"Deutsche Bank","amenity=bank","München-Boschetsrieder Straße","Boschetsrieder Straße 118","81379","München","Bayern / Bavaria","no"
"Deutsche Bank","amenity=bank","München-Großhadern","Sauerbruchstraße 10","81377","München","Bayern / Bavaria","no"
"Deutsche Bank","amenity=bank","München-Kurfürstenplatz","Hohenzollernstraße 49","80801","München","Bayern / Bavaria","no"
"Deutsche Bank","amenity=bank","München-Laim","Agnes-Bernauer-Straße 69b","80687","München","Bayern / Bavaria","yes"
"Deutsche Bank","amenity=bank","München-Marienplatz","Marienplatz 21","80331","München","Bayern / Bavaria","yes"
"Deutsche Bank","amenity=bank","München-Maximilianstraße","Maximilianstraße 26","80539","München","Bayern / Bavaria","no"
"Deutsche Bank","amenity=bank","München-Max-Weber-Platz","Max-Weber-Platz 11","81675","München","Bayern / Bavaria","no"
"Deutsche Bank","amenity=bank","München-Olympia-Einkaufszentrum","Riesstraße 59","80993","München","Bayern / Bavaria","no"
"Deutsche Bank","amenity=bank","München-Ost","Kreillerstraße 64","81673","München","Bayern / Bavaria","no"
"Deutsche Bank","amenity=bank","München-Pasing","Bäckerstraße 10","81241","München","Bayern / Bavaria","no"
"Deutsche Bank","amenity=bank","München-Prinzregentenstraße","Prinzregentenstraße 70","81675","München","Bayern / Bavaria","yes"
"Deutsche Bank","amenity=bank","München-Promenadeplatz","Promenadeplatz 15","80333","München","Bayern / Bavaria","yes"
"Deutsche Bank","amenity=bank","München-Riesenfeldstraße","Bertholdstraße 22","80809","München","Bayern / Bavaria","no"
"Deutsche Bank","amenity=bank","München-Rotkreuzplatz","Nymphenburger Straße 160","80634","München","Bayern / Bavaria","no"
"Deutsche Bank","amenity=bank","München-Schwabing","Leopoldstraße 71","80802","München","Bayern / Bavaria","no"
"Deutsche Bank","amenity=bank","München-Schwanthalerstraße","Schwanthalerstraße 32","80336","München","Bayern / Bavaria","no"
"Deutsche Bank","amenity=bank","München-Sendling","Albert-Roßhaupter-Straße 2","81369","München","Bayern / Bavaria","no"
"Deutsche Bank","amenity=bank","München-Solln","Herterichstraße 97","81477","München","Bayern / Bavaria","yes"
"Deutsche Bank","amenity=bank","München-Ungererstraße","Ungererstraße 169","80805","München","Bayern / Bavaria","yes"
"Deutsche Bank","amenity=bank","München-Universität","Barer Straße 62","80799","München","Bayern / Bavaria","no"
"Deutsche Bank","amenity=bank","München-Weißenburger Platz","Weißenburger Platz 8","81667","München","Bayern / Bavaria","no"
"Deutsche Bank","amenity=bank","München-Wettersteinplatz","Wettersteinplatz 1","81547","München","Bayern / Bavaria","no"
"Deutsche Bank","amenity=bank","Münster-Hiltrup","Marktallee 41","48165","Münster","Nordrhein-Westfalen / North Rhine-Westphalia","yes"
"Deutsche Bank","amenity=bank","Münster","Stubengasse 21","48143","Münster","Nordrhein-Westfalen / North Rhine-Westphalia","yes"
"Deutsche Bank","amenity=bank","Nagold","Marktstraße 5","72202","Nagold","Baden-Württemberg / Baden-Wuerttemberg","yes"
"Deutsche Bank","amenity=bank","Naumburg","Lindenring 48","6618","Naumburg","Sachsen-Anhalt / Saxony-Anhalt","no"
"Deutsche Bank","amenity=bank","Nettetal-Lobberich","Hochstraße 11","41334","Nettetal","Nordrhein-Westfalen / North Rhine-Westphalia","yes"
"Deutsche Bank","amenity=bank","Neubrandenburg","Friedrich-Engels-Ring 52","17033","Neubrandenburg","Mecklenburg-Vorpommern / Mecklenburg-Western Pomerania","no"
"Deutsche Bank","amenity=bank","Neu-Isenburg","Frankfurter Straße 161","63263","Neu-Isenburg","Hessen","yes"
"Deutsche Bank","amenity=bank","Neumünster","Großflecken 21","24534","Neumünster","Schleswig-Holstein","yes"
"Deutsche Bank","amenity=bank","Neunkirchen (Saar)","Stummstraße 10-12","66538","Neunkirchen (Saar)","Saarland","no"
"Deutsche Bank","amenity=bank","Neuruppin","Karl-Marx-Straße 79","16816","Neuruppin","Brandenburg","no"
"Deutsche Bank","amenity=bank","Neuss","Niederstrasse 57","41460","Neuss","Nordrhein-Westfalen / North Rhine-Westphalia","yes"
"Deutsche Bank","amenity=bank","Neustadt / Holstein","Am Markt 9","23730","Neustadt / Holstein","Schleswig-Holstein","yes"
"Deutsche Bank","amenity=bank","Neustadt","Friedrichstraße 30","67433","Neustadt an der Weinstraße","Rheinland-Pfalz / Rhineland-Palatinate","yes"
"Deutsche Bank","amenity=bank","Neustrelitz","Strelitzer Straße 2-4","17235","Neustrelitz","Mecklenburg-Vorpommern / Mecklenburg-Western Pomerania","no"
"Deutsche Bank","amenity=bank","Neuwied","Hermannstraße 13","56564","Neuwied","Rheinland-Pfalz / Rhineland-Palatinate","yes"
"Deutsche Bank","amenity=bank","Norden","Osterstraße 1","26506","Norden","Niedersachsen / Lower Saxony","yes"
"Deutsche Bank","amenity=bank","Norderstedt","Schmuggelstieg 10","22848","Norderstedt","Schleswig-Holstein","yes"
"Deutsche Bank","amenity=bank","Nordhausen","Käthe-Kollwitz-Straße 1","99734","Nordhausen","Thüringen / Thuringia","no"
"Deutsche Bank","amenity=bank","Nordhorn","Bentheimer Straße 4","48529","Nordhorn","Niedersachsen / Lower Saxony","no"
"Deutsche Bank","amenity=bank","Nürnberg-Karolinenstraße","Karolinenstraße 30","90402","Nürnberg","Bayern / Bavaria","no"
"Deutsche Bank","amenity=bank","Nürnberg-Bayreuther Straße","Bayreuther Straße 18","90489","Nürnberg","Bayern / Bavaria","no"
"Deutsche Bank","amenity=bank","Nürnberg-Landgrabenstraße","Landgrabenstraße 144","90459","Nürnberg","Bayern / Bavaria","no"
"Deutsche Bank","amenity=bank","Nürnberg-Langwasser","Oppelner Straße 196","90473","Nürnberg","Bayern / Bavaria","no"
"Deutsche Bank","amenity=bank","Oldenburg in Holstein","Markt 24-25","23758","Oldenburg in Holstein","Schleswig-Holstein","yes"
"Deutsche Bank","amenity=bank","Olpe","Martinstraße 2","57462","Olpe","Nordrhein-Westfalen / North Rhine-Westphalia","no"
"Deutsche Bank","amenity=bank","Oranienburg","Bernauer Straße 18","16515","Oranienburg","Brandenburg","yes"
"Deutsche Bank","amenity=bank","Oschersleben","Halberstädter Straße 100","39387","Oschersleben","Sachsen-Anhalt / Saxony-Anhalt","no"
"Deutsche Bank","amenity=bank","Osnabrück","Wittekindstraße 9-10","49074","Osnabrück","Niedersachsen / Lower Saxony","yes"
"Deutsche Bank","amenity=bank","Osterode","Kornmarkt 3","37520","Osterode","Niedersachsen / Lower Saxony","no"
"Deutsche Bank","amenity=bank","Ottobrunn","Naupliaallee 2","85521","Ottobrunn","Bayern / Bavaria","no"
"Deutsche Bank","amenity=bank","Schmalkalden","Auer Gasse 20","98574","Schmalkalden","Thüringen / Thuringia","yes"
"Deutsche Bank","amenity=bank","Schönebeck","Salzer Straße 14","39218","Schönebeck","Sachsen-Anhalt / Saxony-Anhalt","yes"
"Deutsche Bank","amenity=bank","Schorndorf","Marktplatz 9","73614","Schorndorf","Baden-Württemberg / Baden-Wuerttemberg","yes"
"Deutsche Bank","amenity=bank","Schwäbisch Gmünd","Ledergasse 8","73525","Schwäbisch Gmünd","Baden-Württemberg / Baden-Wuerttemberg","yes"
"Deutsche Bank","amenity=bank","Schwedt","Karthausstraße 12","16303","Schwedt","Brandenburg","yes"
"Deutsche Bank","amenity=bank","Schwelm","Hauptstraße 43-45","58332","Schwelm","Nordrhein-Westfalen / North Rhine-Westphalia","yes"
"Deutsche Bank","amenity=bank","Schwenningen","Harzer Straße 1","78054","Villingen-Schwenningen","Baden-Württemberg / Baden-Wuerttemberg","yes"
"Deutsche Bank","amenity=bank","Schwerin","Marienplatz 1-2","19053","Schwerin","Mecklenburg-Vorpommern / Mecklenburg-Western Pomerania","yes"
"Deutsche Bank","amenity=bank","Paderborn","Bahnhofstraße 1","33102","Paderborn","Nordrhein-Westfalen / North Rhine-Westphalia","yes"
"Deutsche Bank","amenity=bank","Papenburg","Hauptkanal links 58","26871","Papenburg","Niedersachsen / Lower Saxony","yes"
"Deutsche Bank","amenity=bank","Parchim","Blutstraße 13","19370","Parchim","Mecklenburg-Vorpommern / Mecklenburg-Western Pomerania","yes"
"Deutsche Bank","amenity=bank","Passau","Ludwigsplatz 5","94032","Passau","Bayern / Bavaria","yes"
"Deutsche Bank","amenity=bank","Peine","Breite Straße 46","31224","Peine","Niedersachsen / Lower Saxony","yes"
"Deutsche Bank","amenity=bank","Perleberg","Bäckerstraße 10","19348","Perleberg","Brandenburg","yes"
"Deutsche Bank","amenity=bank","Pforzheim","Westliche Karl-Friedrich-Straße 76","75172","Pforzheim","Baden-Württemberg / Baden-Wuerttemberg","yes"
"Deutsche Bank","amenity=bank","Pinneberg","Dingstätte 19-21","25421","Pinneberg","Schleswig-Holstein","no"
"Deutsche Bank","amenity=bank","Pirmasens","Schloßstraße 42","66953","Pirmasens","Rheinland-Pfalz / Rhineland-Palatinate","yes"
"Deutsche Bank","amenity=bank","Pirna","Jacobäerstraße 3","1796","Pirna","Sachsen / Saxony","no"
"Deutsche Bank","amenity=bank","Plauen","Bahnhofstraße 15","8523","Plauen","Sachsen / Saxony","yes"
"Deutsche Bank","amenity=bank","Plettenberg","Umlauf 12","58840","Plettenberg","Nordrhein-Westfalen / North Rhine-Westphalia","yes"
"Deutsche Bank","amenity=bank","Pößneck","Breite Straße 51","7381","Pößneck","Thüringen / Thuringia","yes"
"Deutsche Bank","amenity=bank","Potsdam","Charlottenstraße 40","14467","Potsdam","Brandenburg","yes"
"Deutsche Bank","amenity=bank","Potsdam-Babelsberg","Karl-Liebknecht-Straße 11-13","14482","Potsdam","Brandenburg","yes"
"Deutsche Bank","amenity=bank","Prenzlau","Marktberg 12","17291","Prenzlau","Brandenburg","yes"
"Deutsche Bank","amenity=bank","Radebeul","Moritzburger Straße 1","1445","Radebeul","Sachsen / Saxony","no"
"Deutsche Bank","amenity=bank","Rastatt","Kaiserstraße 60","76437","Rastatt","Baden-Württemberg / Baden-Wuerttemberg","no"
"Deutsche Bank","amenity=bank","Ratekau","Bäderstraße 24","23626","Ratekau","Schleswig-Holstein","yes"
"Deutsche Bank","amenity=bank","Rathenow","Karl-Liebknecht-Straße 3","14712","Rathenow","Brandenburg","yes"
"Deutsche Bank","amenity=bank","Ratingen","Düsseldorfer Straße 23","40878","Ratingen","Nordrhein-Westfalen / North Rhine-Westphalia","yes"
"Deutsche Bank","amenity=bank","Ratingen-West","Am Sandbach 34","40878","Ratingen","Nordrhein-Westfalen / North Rhine-Westphalia","yes"
"Deutsche Bank","amenity=bank","Ratingen-Lintorf","Speestraße 16","40885","Ratingen","Nordrhein-Westfalen / North Rhine-Westphalia","yes"
"Deutsche Bank","amenity=bank","Ratzeburg","Am Markt 8","23909","Ratzeburg","Schleswig-Holstein","yes"
"Deutsche Bank","amenity=bank","Ravensburg","Marienplatz 37","88212","Ravensburg","Baden-Württemberg / Baden-Wuerttemberg","yes"
"Deutsche Bank","amenity=bank","Recklinghausen","Königswall 24","45657","Recklinghausen","Nordrhein-Westfalen / North Rhine-Westphalia","yes"
"Deutsche Bank","amenity=bank","Regensburg","Maximilianstraße 9","93047","Regensburg","Bayern / Bavaria","yes"
"Deutsche Bank","amenity=bank","Reichenbach","Bahnhofstraße 9","8468","Reichenbach","Sachsen / Saxony","yes"
"Deutsche Bank","amenity=bank","Reinbek","Schmiedesberg 2a","21465","Reinbek","Schleswig-Holstein","yes"
"Deutsche Bank","amenity=bank","Remscheid","Blumenstraße 33","42853","Remscheid","Nordrhein-Westfalen / North Rhine-Westphalia","yes"
"Deutsche Bank","amenity=bank","Remscheid-Lennep","Kölner Straße 36","42897","Remscheid","Nordrhein-Westfalen / North Rhine-Westphalia","no"
"Deutsche Bank","amenity=bank","Rendsburg","Jungfernstieg 2","24768","Rendsburg","Schleswig-Holstein","yes"
"Deutsche Bank","amenity=bank","Reutlingen","Kaiserpassage 1","72764","Reutlingen","Baden-Württemberg / Baden-Wuerttemberg","yes"
"Deutsche Bank","amenity=bank","Rheinbach","Vor dem Dreeser Tor 11-13","53359","Rheinbach","Nordrhein-Westfalen / North Rhine-Westphalia","yes"
"Deutsche Bank","amenity=bank","Rheinberg","Orsoyer Straße 1","47495","Rheinberg","Nordrhein-Westfalen / North Rhine-Westphalia","yes"
"Deutsche Bank","amenity=bank","Rheine","Poststraße 21","48431","Rheine","Nordrhein-Westfalen / North Rhine-Westphalia","yes"
"Deutsche Bank","amenity=bank","Rheinfelden","Zähringerstraße 12","79618","Rheinfelden","Baden-Württemberg / Baden-Wuerttemberg","no"
"Deutsche Bank","amenity=bank","Ribnitz-Damgarten","Lange Straße 44","18311","Ribnitz-Damgarten","Mecklenburg-Vorpommern / Mecklenburg-Western Pomerania","yes"
"Deutsche Bank","amenity=bank","Riesa","Alexander-Puschkin-Platz 11","1587","Riesa","Sachsen / Saxony","no"
"Deutsche Bank","amenity=bank","Rosenheim","Max-Josefs-Platz 26","83022","Rosenheim","Bayern / Bavaria","no"
"Deutsche Bank","amenity=bank","Rostock","Kröpeliner Straße 84","18055","Rostock","Mecklenburg-Vorpommern / Mecklenburg-Western Pomerania","yes"
"Deutsche Bank","amenity=bank","Rostock-Lütten Klein","St. Petersburger Straße 18b","18107","Rostock","Mecklenburg-Vorpommern / Mecklenburg-Western Pomerania","no"
"Deutsche Bank","amenity=bank","Rudolstadt","Marktstraße 45","7407","Rudolstadt","Thüringen / Thuringia","yes"
"Deutsche Bank","amenity=bank","Rüsselsheim","Mainzer Straße 2","65428","Rüsselsheim","Hessen","yes"
"Deutsche Bank","amenity=bank","Saarbrücken","Kaiserstraße 29-31","66111","Saarbrücken","Saarland","yes"
"Deutsche Bank","amenity=bank","Saarlouis","Großer Markt 3","66740","Saarlouis","Saarland","no"
"Deutsche Bank","amenity=bank","Salzgitter-Lebenstedt","Chemnitzer Straße 24-26","38226","Salzgitter","Niedersachsen / Lower Saxony","yes"
"Deutsche Bank","amenity=bank","Salzgitter-Bad","Schützenplatz 18","38259","Salzgitter","Niedersachsen / Lower Saxony","yes"
"Deutsche Bank","amenity=bank","Sangerhausen","Göpenstraße 8","6526","Sangerhausen","Sachsen-Anhalt / Saxony-Anhalt","no"
"Deutsche Bank","amenity=bank","Schwerte","Rathausstraße 16","58239","Schwerte","Nordrhein-Westfalen / North Rhine-Westphalia","no"
"Deutsche Bank","amenity=bank","Schwetzingen","Carl-Theodor-Straße 20","68723","Schwetzingen","Baden-Württemberg / Baden-Wuerttemberg","no"
"Deutsche Bank","amenity=bank","Senftenberg","Bahnhofstraße 8","1968","Senftenberg","Brandenburg","yes"
"Deutsche Bank","amenity=bank","Siegburg","Markt 21","53721","Siegburg","Nordrhein-Westfalen / North Rhine-Westphalia","yes"
"Deutsche Bank","amenity=bank","Siegen","Koblenzer Straße 7","57072","Siegen","Nordrhein-Westfalen / North Rhine-Westphalia","yes"
"Deutsche Bank","amenity=bank","Siegen-Weidenau","Poststraße 11","57076","Siegen","Nordrhein-Westfalen / North Rhine-Westphalia","no"
"Deutsche Bank","amenity=bank","Sindelfingen","Ziegelstraße 20","71063","Sindelfingen","Baden-Württemberg / Baden-Wuerttemberg","no"
"Deutsche Bank","amenity=bank","Singen","August-Ruf-Straße 8","78224","Singen","Baden-Württemberg / Baden-Wuerttemberg","yes"
"Deutsche Bank","amenity=bank","Sömmerda","Stadtring 6","99610","Sömmerda","Thüringen / Thuringia","no"
"Deutsche Bank","amenity=bank","Soest","Markt 14","59494","Soest","Nordrhein-Westfalen / North Rhine-Westphalia","yes"
"Deutsche Bank","amenity=bank","Solingen","Konrad-Adenauer-Straße 2","42651","Solingen","Nordrhein-Westfalen / North Rhine-Westphalia","yes"
"Deutsche Bank","amenity=bank","Wesel","Wilhelmstraße 1","46483","Wesel","Nordrhein-Westfalen / North Rhine-Westphalia","yes"
"Deutsche Bank","amenity=bank","Wesseling","Bahnhofstraße 28","50389","Wesseling","Nordrhein-Westfalen / North Rhine-Westphalia","yes"
"Deutsche Bank","amenity=bank","Westerland","Maybachstraße 1","25980","Westerland","Schleswig-Holstein","yes"
"Deutsche Bank","amenity=bank","Wetzlar","Langgasse 68","35576","Wetzlar","Hessen","no"
"Deutsche Bank","amenity=bank","Wiesbaden-Kaiser-Friedrich-Ring","Dotzheimer Straße 50","65185","Wiesbaden","Hessen","yes"
"Deutsche Bank","amenity=bank","Wiesbaden-Schierstein","Karl-Lehr-Straße 28-30","65201","Wiesbaden","Hessen","yes"
"Deutsche Bank","amenity=bank","Solingen-Ohligs","Forststraße 17","42697","Solingen","Nordrhein-Westfalen / North Rhine-Westphalia","yes"
"Deutsche Bank","amenity=bank","Soltau","Wilhelmstraße 22","29614","Soltau","Niedersachsen / Lower Saxony","no"
"Deutsche Bank","amenity=bank","Speyer","Postplatz 4","67346","Speyer","Rheinland-Pfalz / Rhineland-Palatinate","no"
"Deutsche Bank","amenity=bank","Spremberg","Am Markt 5","3130","Spremberg","Brandenburg","yes"
"Deutsche Bank","amenity=bank","St. Ingbert","Kaiserstraße 49","66386","St. Ingbert","Saarland","no"
"Deutsche Bank","amenity=bank","Stade","Breite Straße 1","21682","Stade","Niedersachsen / Lower Saxony","yes"
"Deutsche Bank","amenity=bank","Stadthagen","Obernstraße 4","31655","Stadthagen","Niedersachsen / Lower Saxony","no"
"Deutsche Bank","amenity=bank","Stadtlohn","Dufkampstraße 1","48703","Stadtlohn","Nordrhein-Westfalen / North Rhine-Westphalia","yes"
"Deutsche Bank","amenity=bank","Starnberg","Wittelsbacherstraße 20","82319","Starnberg","Bayern / Bavaria","yes"
"Deutsche Bank","amenity=bank","Staßfurt","Steinstraße 49","39418","Staßfurt","Sachsen-Anhalt / Saxony-Anhalt","yes"
"Deutsche Bank","amenity=bank","Stendal","Breite Straße 26","39576","Stendal","Sachsen-Anhalt / Saxony-Anhalt","yes"
"Deutsche Bank","amenity=bank","Stockelsdorf","Segeberger Straße 9","23617","Stockelsdorf","Schleswig-Holstein","yes"
"Deutsche Bank","amenity=bank","Stolberg","Rathausstraße 46-48","52222","Stolberg","Nordrhein-Westfalen / North Rhine-Westphalia","yes"
"Deutsche Bank","amenity=bank","Stralsund","Tribseer Straße 1","18439","Stralsund","Mecklenburg-Vorpommern / Mecklenburg-Western Pomerania","no"
"Deutsche Bank","amenity=bank","Stuttgart-Bad Cannstatt","König-Karl-Straße 51","70372","Stuttgart","Baden-Württemberg / Baden-Wuerttemberg","no"
"Deutsche Bank","amenity=bank","Stuttgart-Degerloch","Große Falterstraße 1","70597","Stuttgart","Baden-Württemberg / Baden-Wuerttemberg","no"
"Deutsche Bank","amenity=bank","Stuttgart-Feuerbach","Stuttgarter Straße 81","70469","Stuttgart","Baden-Württemberg / Baden-Wuerttemberg","no"
"Deutsche Bank","amenity=bank","Stuttgart-Königstraße","Königstraße 82","70173","Stuttgart","Baden-Württemberg / Baden-Wuerttemberg","yes"
"Deutsche Bank","amenity=bank","Stuttgart-Theodor-Heuss-Straße","Theodor-Heuss-Straße 3","70174","Stuttgart","Baden-Württemberg / Baden-Wuerttemberg","yes"
"Deutsche Bank","amenity=bank","Stuttgart-Vaihingen","Hauptstraße 11","70563","Stuttgart","Baden-Württemberg / Baden-Wuerttemberg","yes"
"Deutsche Bank","amenity=bank","Viersen-Süchteln","Tönisvorster Straße 2","41749","Viersen","Nordrhein-Westfalen / North Rhine-Westphalia","yes"
"Deutsche Bank","amenity=bank","Suhl","Friedrich-König-Straße 21","98527","Suhl","Thüringen / Thuringia","yes"
"Deutsche Bank","amenity=bank","Sundern","Hauptstraße 124","59846","Sundern","Nordrhein-Westfalen / North Rhine-Westphalia","yes"
"Deutsche Bank","amenity=bank","Teterow","Rostocker Straße 1","17166","Teterow","Mecklenburg-Vorpommern / Mecklenburg-Western Pomerania","yes"
"Deutsche Bank","amenity=bank","Timmendorfer Strand","Strandallee 93","23669","Timmendorfer Strand","Schleswig-Holstein","yes"
"Deutsche Bank","amenity=bank","Titisee-Neustadt","Hauptstraße 16","79822","Titisee-Neustadt","Baden-Württemberg / Baden-Wuerttemberg","yes"
"Deutsche Bank","amenity=bank","Tönisvorst","Hochstraße 5","47918","Tönisvorst","Nordrhein-Westfalen / North Rhine-Westphalia","no"
"Deutsche Bank","amenity=bank","Torgelow","Bahnhofstraße 1d","17358","Torgelow","Mecklenburg-Vorpommern / Mecklenburg-Western Pomerania","yes"
"Deutsche Bank","amenity=bank","Lübeck-Travemünde","Vorderreihe 62","23570","Lübeck","Schleswig-Holstein","yes"
"Deutsche Bank","amenity=bank","Trier","Hosenstraße 20","54290","Trier","Rheinland-Pfalz / Rhineland-Palatinate","yes"
"Deutsche Bank","amenity=bank","Troisdorf","Am Bürgerhaus 10","53840","Troisdorf","Nordrhein-Westfalen / North Rhine-Westphalia","yes"
"Deutsche Bank","amenity=bank","Tübingen","Am Lustnauer Tor 1","72074","Tübingen","Baden-Württemberg / Baden-Wuerttemberg","yes"
"Deutsche Bank","amenity=bank","Tuttlingen","Bahnhofstraße 44","78532","Tuttlingen","Baden-Württemberg / Baden-Wuerttemberg","yes"
"Deutsche Bank","amenity=bank","Überlingen","Owinger Straße 2","88662","Überlingen","Baden-Württemberg / Baden-Wuerttemberg","yes"
"Deutsche Bank","amenity=bank","Uelzen","Gudesstraße 1","29525","Uelzen","Niedersachsen / Lower Saxony","yes"
"Deutsche Bank","amenity=bank","Krefeld-Uerdingen","Kurfürstenstraße 51","47829","Krefeld","Nordrhein-Westfalen / North Rhine-Westphalia","yes"
"Deutsche Bank","amenity=bank","Ulm","Münsterplatz 33","89073","Ulm","Baden-Württemberg / Baden-Wuerttemberg","yes"
"Deutsche Bank","amenity=bank","Unna","Bahnhofstraße 43","59423","Unna","Nordrhein-Westfalen / North Rhine-Westphalia","no"
"Deutsche Bank","amenity=bank","Vechta","Große Straße 47","49377","Vechta","Niedersachsen / Lower Saxony","yes"
"Deutsche Bank","amenity=bank","Velbert","Nedderstraße 15","42551","Velbert","Nordrhein-Westfalen / North Rhine-Westphalia","yes"
"Deutsche Bank","amenity=bank","Verden","Große Straße 52","27283","Verden","Niedersachsen / Lower Saxony","yes"
"Deutsche Bank","amenity=bank","Viernheim","Schulstraße 8","68519","Viernheim","Hessen","no"
"Deutsche Bank","amenity=bank","Viersen","Remigiusplatz 16","41747","Viersen","Nordrhein-Westfalen / North Rhine-Westphalia","yes"
"Deutsche Bank","amenity=bank","Villingen","Kaiserring 10","78050","Villingen-Schwenningen","Baden-Württemberg / Baden-Wuerttemberg","yes"
"Deutsche Bank","amenity=bank","Völklingen","Marktstraße 4","66333","Völklingen","Saarland","no"
"Deutsche Bank","amenity=bank","Vreden","Wassermühlenstraße 4","48691","Vreden","Nordrhein-Westfalen / North Rhine-Westphalia","yes"
"Deutsche Bank","amenity=bank","Waiblingen","Fronackerstraße 14","71332","Waiblingen","Baden-Württemberg / Baden-Wuerttemberg","yes"
"Deutsche Bank","amenity=bank","Waldbröl","Kaiserstraße 50","51545","Waldbröl","Nordrhein-Westfalen / North Rhine-Westphalia","yes"
"Deutsche Bank","amenity=bank","Waldshut","Im Wallgraben 46","79761","Waldshut-Tiengen","Baden-Württemberg / Baden-Wuerttemberg","yes"
"Deutsche Bank","amenity=bank","Waltrop","Hagelstraße 4","45731","Waltrop","Nordrhein-Westfalen / North Rhine-Westphalia","no"
"Deutsche Bank","amenity=bank","Warendorf","Münsterstraße 14","48231","Warendorf","Nordrhein-Westfalen / North Rhine-Westphalia","no"
"Deutsche Bank","amenity=bank","Wedel","Bahnhofstraße 43","22880","Wedel","Schleswig-Holstein","yes"
"Deutsche Bank","amenity=bank","Wegberg","Bahnhofstraße 44","41844","Wegberg","Nordrhein-Westfalen / North Rhine-Westphalia","no"
"Deutsche Bank","amenity=bank","Weil","Hauptstraße 196","79576","Weil am Rhein","Baden-Württemberg / Baden-Wuerttemberg","yes"
"Deutsche Bank","amenity=bank","Weimar","Frauentorstraße 3","99423","Weimar","Thüringen / Thuringia","no"
"Deutsche Bank","amenity=bank","Weinheim-Bahnhofstraße","Bahnhofstraße 8","69469","Weinheim","Baden-Württemberg / Baden-Wuerttemberg","yes"
"Deutsche Bank","amenity=bank","Weißwasser","Berliner Straße 2","2943","Weißwasser","Sachsen / Saxony","yes"
"Deutsche Bank","amenity=bank","Werl","Alter Markt 3","59457","Werl","Nordrhein-Westfalen / North Rhine-Westphalia","yes"
"Deutsche Bank","amenity=bank","Wermelskirchen","Telegrafenstraße 24","42929","Wermelskirchen","Nordrhein-Westfalen / North Rhine-Westphalia","yes"
"Deutsche Bank","amenity=bank","Werne","Steinstraße 35","59368","Werne","Nordrhein-Westfalen / North Rhine-Westphalia","yes"
"Deutsche Bank","amenity=bank","Wernigerode","Breite Straße 16","38855","Wernigerode","Sachsen-Anhalt / Saxony-Anhalt","no"
"Deutsche Bank","amenity=bank","Wiesbaden","Wilhelmstraße 20-22","65185","Wiesbaden","Hessen","yes"
"Deutsche Bank","amenity=bank","Wiesloch","Zähringer Straße 1/1","69168","Wiesloch","Baden-Württemberg / Baden-Wuerttemberg","yes"
"Deutsche Bank","amenity=bank","Wilhelmshaven","Marktstraße 42","26382","Wilhelmshaven","Niedersachsen / Lower Saxony","yes"
"Deutsche Bank","amenity=bank","Willich","Bahnstraße 21","47877","Willich","Nordrhein-Westfalen / North Rhine-Westphalia","yes"
"Deutsche Bank","amenity=bank","Wipperfürth","Untere Straße 36","51688","Wipperfürth","Nordrhein-Westfalen / North Rhine-Westphalia","no"
"Deutsche Bank","amenity=bank","Wismar","Am Markt 16-17","23966","Wismar","Mecklenburg-Vorpommern / Mecklenburg-Western Pomerania","yes"
"Deutsche Bank","amenity=bank","Wittenberg","Juristenstraße 1-2","6886","Wittenberg","Sachsen-Anhalt / Saxony-Anhalt","no"
"Deutsche Bank","amenity=bank","Witten","Wideystraße 9","58452","Witten","Nordrhein-Westfalen / North Rhine-Westphalia","yes"
"Deutsche Bank","amenity=bank","Wittlich","Burgstraße 49","54516","Wittlich","Rheinland-Pfalz / Rhineland-Palatinate","no"
"Deutsche Bank","amenity=bank","Wittstock","Königstraße 2","16909","Wittstock","Brandenburg","no"
"Deutsche Bank","amenity=bank","Wolfenbüttel","Holzmarkt 3-5","38300","Wolfenbüttel","Niedersachsen / Lower Saxony","yes"
"Deutsche Bank","amenity=bank","Wolfsburg","Porschestraße 36","38440","Wolfsburg","Niedersachsen / Lower Saxony","yes"
"Deutsche Bank","amenity=bank","Wolgast","Rathausplatz 2","17438","Wolgast","Mecklenburg-Vorpommern / Mecklenburg-Western Pomerania","yes"
"Deutsche Bank","amenity=bank","Worms","Wilhelm-Leuschner-Straße 17","67547","Worms","Rheinland-Pfalz / Rhineland-Palatinate","yes"
"Deutsche Bank","amenity=bank","Wülfrath","Wilhelmstraße 96","42489","Wülfrath","Nordrhein-Westfalen / North Rhine-Westphalia","yes"
"Deutsche Bank","amenity=bank","Würzburg","Juliuspromenade 66","97070","Würzburg","Bayern / Bavaria","no"
"Deutsche Bank","amenity=bank","Wuppertal-Barmen","Friedrich-Engels-Allee 426","42283","Wuppertal","Nordrhein-Westfalen / North Rhine-Westphalia","no"
"Deutsche Bank","amenity=bank","Wuppertal-Cronenberg","Rathausstraße 14","42349","Wuppertal","Nordrhein-Westfalen / North Rhine-Westphalia","no"
"Deutsche Bank","amenity=bank","Wuppertal","Friedrich-Ebert-Straße 1-11","42103","Wuppertal","Nordrhein-Westfalen / North Rhine-Westphalia","yes"
"Deutsche Bank","amenity=bank","Wuppertal-Ronsdorf","Lüttringhauser Straße 29","42369","Wuppertal","Nordrhein-Westfalen / North Rhine-Westphalia","yes"
"Deutsche Bank","amenity=bank","Wuppertal-Vohwinkel","Gräfrather Straße 1","42329","Wuppertal","Nordrhein-Westfalen / North Rhine-Westphalia","yes"
"Deutsche Bank","amenity=bank","Wurzen","Albert-Kuntz-Straße 11","4808","Wurzen","Sachsen / Saxony","yes"
"Deutsche Bank","amenity=bank","Xanten","Markt 2","46509","Xanten","Nordrhein-Westfalen / North Rhine-Westphalia","yes"
"Deutsche Bank","amenity=bank","Zittau","Neustadt 47; Salzhaus","2763","Zittau","Sachsen / Saxony","yes"
"Deutsche Bank","amenity=bank","Zweibrücken","Poststraße 23","66482","Zweibrücken","Rheinland-Pfalz / Rhineland-Palatinate","no"
"Deutsche Bank","amenity=bank","Zwickau","Dr.-Friedrichs-Ring 10","8056","Zwickau","Sachsen / Saxony","yes"
"Deutsche Bank","amenity=bank","Geretsried","Egerlandstraße 48","82538","Geretsried","Bayern / Bavaria","yes"
"Deutsche Bank","amenity=bank","Gilching","Am Markt 3","82205","Gilching","Bayern / Bavaria","yes"
"Deutsche Bank","amenity=bank","Vaihingen an der Enz","Stuttgarter Straße 24","71665","Vaihingen an der Enz","Baden-Württemberg / Baden-Wuerttemberg","yes"
"Deutsche Bank","amenity=bank","München-Waldtrudering","Wasserburger Landstraße 235","81827","München","Bayern / Bavaria","yes"
"Deutsche Bank","amenity=atm","Berlin-Theodor-Heuss-Platz","Theodor-Heuss-Platz 2",14052,"Berlin","Berlin","no"
"Deutsche Bank","amenity=atm","Duisburg-Röttgersbach","Ziegelhorststraße 56",47169,"Duisburg","Nordrhein-Westfalen / North Rhine-Westphalia","no"
"Deutsche Bank","amenity=atm","Eisleben","Plan 4",06295,"Eisleben","Sachsen-Anhalt / Saxony-Anhalt","yes"
"Deutsche Bank","amenity=atm","Ahrensbök","Lübecker Straße 2a",23623,"Ahrensbök","Schleswig-Holstein","yes"
"Deutsche Bank","amenity=atm","Essen-Bismarckplatz","Bismarckplatz 1",45128,"Essen","Nordrhein-Westfalen / North Rhine-Westphalia","yes"
"Deutsche Bank","amenity=atm","Essen-Frintrop","Frintroper Straße 457",45359,"Essen","Nordrhein-Westfalen / North Rhine-Westphalia","yes"
"Deutsche Bank","amenity=atm","Frankfurt-DB Bauspar","Niddagaustraße 42",60489,"Frankfurt am Main","Hessen","yes"
"Deutsche Bank","amenity=atm","Frankfurt-Große Gallusstraße","Große Gallusstraße 10-14",60311,"Frankfurt am Main","Hessen","yes"
"Deutsche Bank","amenity=atm","Frankfurt-IBC","Theodor-Heuss-Allee 72",60486,"Frankfurt am Main","Hessen","yes"
"Deutsche Bank","amenity=atm","Frankfurt-Wilhelm-Fay-Straße","Wilhelm-Fay-Straße 31-37",65936,"Frankfurt am Main","Hessen","yes"
"Deutsche Bank","amenity=atm","Hohenstein-Ernstthal","Immanuel-Kant-Straße 7a",09337,"Hohenstein-Ernstthal","Sachsen / Saxony","no"
"Deutsche Bank","amenity=atm","Kelkheim","Frankfurter Straße 54a",65779,"Kelkheim","Hessen","no"
"Deutsche Bank","amenity=atm","Lauf an der Pegnitz","Briver Allee 11",91207,"Lauf an der Pegnitz","Bayern / Bavaria",
"Deutsche Bank","amenity=atm","Neuss-Reuschenberg","Bergheimer Straße 499",41466,"Neuss","Nordrhein-Westfalen / North Rhine-Westphalia","yes"
"Deutsche Bank","amenity=atm","Oelde","Bahnhofstraße 24",59302,"Oelde","Nordrhein-Westfalen / North Rhine-Westphalia","yes"
"Deutsche Bank","amenity=atm","Reinfeld","Paul-von-Schoenaich-Straße 27",23858,"Reinfeld","Schleswig-Holstein","yes"
"Deutsche Bank","amenity=atm","Rösrath","Hauptstraße 76",51503,"Rösrath","Nordrhein-Westfalen / North Rhine-Westphalia","yes"
"Deutsche Bank","amenity=atm","Seesen","Jacobsonstraße 9",38723,"Seesen","Niedersachsen / Lower Saxony","yes"
"Deutsche Bank","amenity=atm","Wilnsdorf","Rathausstraße 3",57234,"Wilnsdorf","Nordrhein-Westfalen / North Rhine-Westphalia","yes"
"Deutsche Bank","amenity=atm","Holzminden","Obere Straße 1",37603,"Holzminden","Niedersachsen / Lower Saxony",
"Deutsche Bank","amenity=atm","Bad Pyrmont","Brunnenstraße 37",31812,"Bad Pyrmont","Niedersachsen / Lower Saxony",
"Deutsche Bank","amenity=atm","Nienburg","Lange Straße 12-16",31582,"Nienburg","Niedersachsen / Lower Saxony","yes"
"Deutsche Bank","amenity=atm","Gronau / Leine","Steintor 8",31028,"Gronau","Niedersachsen / Lower Saxony","yes"
"Deutsche Bank","amenity=atm","Northeim","Breite Straße 13",37154,"Northeim","Niedersachsen / Lower Saxony","no"
"Deutsche Bank","amenity=atm","Rinteln","Weserstr. 32",31737,"Rinteln","Niedersachsen / Lower Saxony",
"Deutsche Bank","amenity=atm","Braunschweig-Wenden","Hauptstraße 74",38110,"Braunschweig","Niedersachsen / Lower Saxony","yes"
"Deutsche Bank","amenity=atm","Braunschweig-Weststadt","Illerstraße 59 a",38120,"Braunschweig","Niedersachsen / Lower Saxony","yes"
"Deutsche Bank","amenity=atm","Bad Lauterberg","Hauptstraße 124",37431,"Bad Lauterberg","Niedersachsen / Lower Saxony","no"
"Deutsche Bank","amenity=atm","Bad Sachsa","Marktstraße 43-44",37441,"Bad Sachsa","Niedersachsen / Lower Saxony","yes"
"Deutsche Bank","amenity=atm","Clausthal-Zellerfeld","Adolph-Roemer-Straße 39",38678,"Clausthal-Zellerfeld","Niedersachsen / Lower Saxony","yes"
"Deutsche Bank","amenity=atm","Herzberg","Markt 2",37412,"Herzberg","Niedersachsen / Lower Saxony","no"
"Deutsche Bank","amenity=atm","Hannover-Badenstedt","Badenstedter Straße 215",30455,"Hannover","Niedersachsen / Lower Saxony","yes"
"Deutsche Bank","amenity=atm","Hannover-Kirchrode","Großer Hillen 12-14",30559,"Hannover","Niedersachsen / Lower Saxony","yes"
"Deutsche Bank","amenity=atm","Hannover-Stöcken","Eichsfelder Straße 74",30419,"Hannover","Niedersachsen / Lower Saxony","yes"
"Deutsche Bank","amenity=atm","Vechelde","Hildesheimer Straße 85",38159,"Vechelde","Niedersachsen / Lower Saxony","yes"
"Deutsche Bank","amenity=atm","Osnabrück-Lotter Straße","Lotter Straße 30",49078,"Osnabrück","Niedersachsen / Lower Saxony","no"
"Deutsche Bank","amenity=atm","Osnabrück-Schützenstraße","Schützenstraße 81",49084,"Osnabrück","Niedersachsen / Lower Saxony","no"
"Deutsche Bank","amenity=atm","Bad Iburg","Große Straße 19",49186,"Bad Iburg","Niedersachsen / Lower Saxony","no"
"Deutsche Bank","amenity=atm","Bramsche","Münsterstraße 29",49565,"Bramsche","Niedersachsen / Lower Saxony","no"
"Deutsche Bank","amenity=atm","Georgsmarienhütte-Hindenburgstraße","Hindenburgstraße 12",49124,"Georgsmarienhütte","Niedersachsen / Lower Saxony","no"
"Deutsche Bank","amenity=atm","Quakenbrück","Lange Straße 22",49610,"Quakenbrück","Niedersachsen / Lower Saxony","no"
"Deutsche Bank","amenity=atm","Meppen","Obergerichtsstraße 4",49716,"Meppen","Niedersachsen / Lower Saxony","no"
"Deutsche Bank","amenity=atm","Schüttorf","Markt 14",48465,"Schüttorf","Niedersachsen / Lower Saxony","no"
"Deutsche Bank","amenity=atm","Münster-Rothenburg","Rothenburg 23",48143,"Münster","Nordrhein-Westfalen / North Rhine-Westphalia","no"
"Deutsche Bank","amenity=atm","Ahaus","Markt 2",48683,"Ahaus","Nordrhein-Westfalen / North Rhine-Westphalia","yes"
"Deutsche Bank","amenity=atm","Emsdetten","Nordwalder Straße 6",48282,"Emsdetten","Nordrhein-Westfalen / North Rhine-Westphalia","yes"
"Deutsche Bank","amenity=atm","Beckum","Nordstraße 48a",59269,"Beckum","Nordrhein-Westfalen / North Rhine-Westphalia","yes"
"Deutsche Bank","amenity=atm","Borken","Heilig-Geist-Straße 2",46325,"Borken","Nordrhein-Westfalen / North Rhine-Westphalia","no"
"Deutsche Bank","amenity=atm","Coesfeld","Kupferstraße 5 (in der Kupferpassage)",48653,"Coesfeld","Nordrhein-Westfalen / North Rhine-Westphalia","no"
"Deutsche Bank","amenity=atm","Steinfurt-Borghorst","Kroosgang 8",48565,"Steinfurt","Nordrhein-Westfalen / North Rhine-Westphalia","no"
"Deutsche Bank","amenity=atm","Blomberg","Neue Torstraße 10",32825,"Blomberg","Nordrhein-Westfalen / North Rhine-Westphalia","no"
"Deutsche Bank","amenity=atm","Horn-Bad Meinberg","Mittelstraße 101",32805,"Horn-Bad Meinberg","Nordrhein-Westfalen / North Rhine-Westphalia","no"
"Deutsche Bank","amenity=atm","Lage","Lange Straße 99",32791,"Lage","Nordrhein-Westfalen / North Rhine-Westphalia","yes"
"Deutsche Bank","amenity=atm","Bad Driburg","Lange Straße 119",33014,"Bad Driburg","Nordrhein-Westfalen / North Rhine-Westphalia","no"
"Deutsche Bank","amenity=atm","Bad Lippspringe","Detmolder Straße 167",33175,"Bad Lippspringe","Nordrhein-Westfalen / North Rhine-Westphalia","yes"
"Deutsche Bank","amenity=atm","Lemgo","Ostertor 1",32657,"Lemgo","Nordrhein-Westfalen / North Rhine-Westphalia","no"
"Deutsche Bank","amenity=atm","Halle (Westfalen)","Bahnhofstraße 1",33790,"Halle (Westfalen)","Nordrhein-Westfalen / North Rhine-Westphalia","yes"
"Deutsche Bank","amenity=atm","Harsewinkel","Alter Markt 6",33428,"Harsewinkel","Nordrhein-Westfalen / North Rhine-Westphalia","yes"
"Deutsche Bank","amenity=atm","Oerlinghausen","Rathausstraße 4",33813,"Oerlinghausen","Nordrhein-Westfalen / North Rhine-Westphalia","no"
"Deutsche Bank","amenity=atm","Rheda-Wiedenbrück","Berliner Straße 12b",33378,"Rheda-Wiedenbrück","Nordrhein-Westfalen / North Rhine-Westphalia","yes"
"Deutsche Bank","amenity=atm","Spenge","Lange Straße 49",32139,"Spenge","Nordrhein-Westfalen / North Rhine-Westphalia","no"
"Deutsche Bank","amenity=atm","Verl","Wilhelmstraße 10",33415,"Verl","Nordrhein-Westfalen / North Rhine-Westphalia","no"
"Deutsche Bank","amenity=atm","Espelkamp","Breslauer Straße 16",32339,"Espelkamp","Nordrhein-Westfalen / North Rhine-Westphalia","no"
"Deutsche Bank","amenity=atm","Löhne","Alte Bünder Straße 2",32584,"Löhne","Nordrhein-Westfalen / North Rhine-Westphalia","no"
"Deutsche Bank","amenity=atm","Bielefeld-Heepen","Salzufler Straße 12",33719,"Bielefeld","Nordrhein-Westfalen / North Rhine-Westphalia","no"
"Deutsche Bank","amenity=atm","Bielefeld-Jahnplatz","Niederwall 2 - Zugang Renteistraße",33602,"Bielefeld","Nordrhein-Westfalen / North Rhine-Westphalia","yes"
"Deutsche Bank","amenity=atm","Boppard","Marktstraße 13",56154,"Boppard","Rheinland-Pfalz / Rhineland-Palatinate","yes"
"Deutsche Bank","amenity=atm","Bendorf","Hauptstraße 89-91",56170,"Bendorf","Rheinland-Pfalz / Rhineland-Palatinate","yes"
"Deutsche Bank","amenity=atm","Lahnstein","Bahnhofstraße 27",56112,"Lahnstein","Rheinland-Pfalz / Rhineland-Palatinate","no"
"Deutsche Bank","amenity=atm","Mayen","Marktstraße 44",56727,"Mayen","Rheinland-Pfalz / Rhineland-Palatinate","yes"
"Deutsche Bank","amenity=atm","Weißenthurm","Hauptstraße 173",56575,"Weißenthurm","Rheinland-Pfalz / Rhineland-Palatinate","no"
"Deutsche Bank","amenity=atm","Zell","Barlstraße 10",56856,"Zell","Rheinland-Pfalz / Rhineland-Palatinate","no"
"Deutsche Bank","amenity=atm","Konz","Schillerstraße 5",54329,"Konz","Rheinland-Pfalz / Rhineland-Palatinate","no"
"Deutsche Bank","amenity=atm","Mainz-Berliner Siedlung","Am Rodelberg 10",55131,"Mainz","Rheinland-Pfalz / Rhineland-Palatinate","no"
"Deutsche Bank","amenity=atm","Mainz-Boppstraße","Boppstraße 66",55118,"Mainz","Rheinland-Pfalz / Rhineland-Palatinate","no"
"Deutsche Bank","amenity=atm","Saarbrücken-Rastpfuhl","Lebacher Straße 53",66113,"Saarbrücken","Saarland","yes"
"Deutsche Bank","amenity=atm","Saarbrücken-Totohaus","Bahnhofstraße 31a",66111,"Saarbrücken","Saarland","yes"
"Deutsche Bank","amenity=atm","Rottweil","Oberndorfer Straße 4",78628,"Rottweil","Baden-Württemberg / Baden-Wuerttemberg","no"
"Deutsche Bank","amenity=atm","Spaichingen","Hauptstraße 87",78549,"Spaichingen","Baden-Württemberg / Baden-Wuerttemberg","yes"
"Deutsche Bank","amenity=atm","Haslach im Kinzigtal","Hauptstraße 26",77716,"Haslach im Kinzigtal","Baden-Württemberg / Baden-Wuerttemberg","no"
"Deutsche Bank","amenity=atm","Wehr","Bahnhofplatz 2",79664,"Wehr (Baden)","Baden-Württemberg / Baden-Wuerttemberg","no"
"Deutsche Bank","amenity=atm","Waldkirch","Damenstraße 6",79183,"Waldkirch","Baden-Württemberg / Baden-Wuerttemberg","no"
"Deutsche Bank","amenity=atm","Schopfheim","Hauptstraße 24",79650,"Schopfheim","Baden-Württemberg / Baden-Wuerttemberg","yes"
"Deutsche Bank","amenity=atm","Donaueschingen","Dürrheimerstraße 17",78166,"Donaueschingen","Baden-Württemberg / Baden-Wuerttemberg","yes"
"Deutsche Bank","amenity=atm","St. Georgen","Sommeraustraße 2",78112,"St. Georgen","Baden-Württemberg / Baden-Wuerttemberg","yes"
"Deutsche Bank","amenity=atm","Freiburg-Sundgauallee","Sundgauallee 116",79110,"Freiburg","Baden-Württemberg / Baden-Wuerttemberg","no"
"Deutsche Bank","amenity=atm","Freiburg-Zähringen","Zähringer Straße 361",79108,"Freiburg","Baden-Württemberg / Baden-Wuerttemberg","no"
"Deutsche Bank","amenity=atm","Dresden-Försterlingstraße","Försterlingstraße 26",01259,"Dresden","Sachsen / Saxony","yes"
"Deutsche Bank","amenity=atm","Dresden-Gorbitz","Merianplatz 4",01169,"Dresden","Sachsen / Saxony","yes"
"Deutsche Bank","amenity=atm","Dresden-Klotzsche","Königsbrücker Landstraße 21",01109,"Dresden","Sachsen / Saxony","yes"
"Deutsche Bank","amenity=atm","Dresden-Mickten","Leipziger Straße 159",01139,"Dresden","Sachsen / Saxony","no"
"Deutsche Bank","amenity=atm","Dresden-Nürnberger Ei","Nürnberger Straße 37",01187,"Dresden","Sachsen / Saxony","no"
"Deutsche Bank","amenity=atm","Olbernhau","Markt 1",09526,"Olbernhau","Sachsen / Saxony","yes"
"Deutsche Bank","amenity=atm","Auerbach","Göltzschtalstraße 36",08209,"Auerbach","Sachsen / Saxony","yes"
"Deutsche Bank","amenity=atm","Burgstädt","Straße der Deutschen Einheit 29",09217,"Burgstädt","Sachsen / Saxony","yes"
"Deutsche Bank","amenity=atm","Coswig","Moritzburger Straße 6-8",01640,"Coswig","Sachsen / Saxony","yes"
"Deutsche Bank","amenity=atm","Frankenberg","Baderberg 6",09669,"Frankenberg","Sachsen / Saxony","no"
"Deutsche Bank","amenity=atm","Freital","An der Spinnerei 8; BUGA-Center (Weißeritzpark)",01705,"Freital","Sachsen / Saxony","yes"
"Deutsche Bank","amenity=atm","Glauchau","Dr. Dörffel-Straße 1",08371,"Glauchau","Sachsen / Saxony","yes"
"Deutsche Bank","amenity=atm","Großenhain","Schloßstraße 14",01558,"Großenhain","Sachsen / Saxony","yes"
"Deutsche Bank","amenity=atm","Heidenau","Ernst-Thälmann-Straße 17",01809,"Heidenau","Sachsen / Saxony","no"
"Deutsche Bank","amenity=atm","Klingenthal","Markneukirchner Straße 2",08248,"Klingenthal","Sachsen / Saxony","no"
"Deutsche Bank","amenity=atm","Lichtenstein","Badergasse 17",09350,"Lichtenstein","Sachsen / Saxony","yes"
"Deutsche Bank","amenity=atm","Löbau","Sachsenstraße 8",02708,"Löbau","Sachsen / Saxony","yes"
"Deutsche Bank","amenity=atm","Marienberg","Poststraße 2",09496,"Marienberg","Sachsen / Saxony","no"
"Deutsche Bank","amenity=atm","Niesky","Görlitzer Straße 7",02906,"Niesky","Sachsen / Saxony","yes"
"Deutsche Bank","amenity=atm","Oberwiesenthal","Markt 4",09484,"Oberwiesenthal","Sachsen / Saxony","yes"
"Deutsche Bank","amenity=atm","Radeberg","Pulsnitzer Straße 4",01454,"Radeberg","Sachsen / Saxony","yes"
"Deutsche Bank","amenity=atm","Schwarzenberg","Steinweg 1",08340,"Schwarzenberg","Sachsen / Saxony","no"
"Deutsche Bank","amenity=atm","Stollberg","Roßmarkt 5",09366,"Stollberg","Sachsen / Saxony","no"
"Deutsche Bank","amenity=atm","Werdau","Markt 39",08412,"Werdau","Sachsen / Saxony",
"Deutsche Bank","amenity=atm","Chemnitz-Augustusburger Straße","Uferstraße 48/50",09126,"Chemnitz","Sachsen / Saxony","no"
"Deutsche Bank","amenity=atm","Chemnitz-Kaßberg","Weststraße 96",09112,"Chemnitz","Sachsen / Saxony","yes"
"Deutsche Bank","amenity=atm","Chemnitz-Straße der Nationen","Straße der Nationen 56",09111,"Chemnitz","Sachsen / Saxony","no"
"Deutsche Bank","amenity=atm","Worbis","Lange Straße 75",37339,"Worbis","Thüringen / Thuringia",
"Deutsche Bank","amenity=atm","Sondershausen","Carl-Schroeder-Straße 8",99706,"Sondershausen","Thüringen / Thuringia","yes"
"Deutsche Bank","amenity=atm","Leinefelde","Bergstraße 7",37327,"Leinefelde","Thüringen / Thuringia","yes"
"Deutsche Bank","amenity=atm","Gera-Lusan","Schleizer Straße 6",07549,"Gera","Thüringen / Thuringia","yes"
"Deutsche Bank","amenity=atm","Jena-Lobeda","Karl-Marx-Allee 20; EKZ-Kaufland",07747,"Jena","Thüringen / Thuringia","yes"
"Deutsche Bank","amenity=atm","Jena-Marktpassage","Rathausgasse 2/4",07743,"Jena","Thüringen / Thuringia","yes"
"Deutsche Bank","amenity=atm","Neustadt / Orla","Rodaer Straße 7",07806,"Neustadt / Orla","Thüringen / Thuringia","no"
"Deutsche Bank","amenity=atm","Arnstadt","An der neuen Kirche 8",99310,"Arnstadt","Thüringen / Thuringia","no"
"Deutsche Bank","amenity=atm","Meiningen","Untere Kaplanei Straße 1",98617,"Meiningen","Thüringen / Thuringia","no"
"Deutsche Bank","amenity=atm","Saalfeld","Saalstraße 48",07318,"Saalfeld","Thüringen / Thuringia","no"
"Deutsche Bank","amenity=atm","Waltershausen","Quergasse 5, Eingang Beckengasse",99880,"Waltershausen","Thüringen / Thuringia","no"
"Deutsche Bank","amenity=atm","Erfurt-Magdeburger Allee","Magdeburger Allee 126",99086,"Erfurt","Thüringen / Thuringia","yes"
"Deutsche Bank","amenity=atm","Halle-Am Treff","Richard - Paulick - Straße",06124,"Halle (Saale)","Sachsen-Anhalt / Saxony-Anhalt","no"
"Deutsche Bank","amenity=atm","Halle-Neustadt","Neustädter Passage 6",06122,"Halle (Saale)","Sachsen-Anhalt / Saxony-Anhalt","yes"
"Deutsche Bank","amenity=atm","Halle-Rannischer Platz","Steinweg 25",06110,"Halle (Saale)","Sachsen-Anhalt / Saxony-Anhalt","yes"
"Deutsche Bank","amenity=atm","Halle-Reileck","Bernburger Straße 16",06108,"Halle (Saale)","Sachsen-Anhalt / Saxony-Anhalt","yes"
"Deutsche Bank","amenity=atm","Halle-Silberhöhe","Wilhelm-von-Klewitz-Straße 9",06132,"Halle (Saale)","Sachsen-Anhalt / Saxony-Anhalt",
"Deutsche Bank","amenity=atm","Bernburg","Karlsplatz 33",06406,"Bernburg","Sachsen-Anhalt / Saxony-Anhalt","no"
"Deutsche Bank","amenity=atm","Delitzsch","Leipziger Straße 1",04509,"Delitzsch","Sachsen / Saxony","no"
"Deutsche Bank","amenity=atm","Döbeln","Obermarkt 9",04720,"Döbeln","Sachsen / Saxony","no"
"Deutsche Bank","amenity=atm","Eilenburg","Leipziger Straße 64",04838,"Eilenburg","Sachsen / Saxony","yes"
"Deutsche Bank","amenity=atm","Grimma","Lorenzstraße 12",04668,"Grimma","Sachsen / Saxony","no"
"Deutsche Bank","amenity=atm","Hettstedt","Untere Bahnhofstr. 1-3",06333,"Hettstedt","Sachsen-Anhalt / Saxony-Anhalt","yes"
"Deutsche Bank","amenity=atm","Köthen","Schalaunische Straße 6-7",06366,"Köthen","Sachsen-Anhalt / Saxony-Anhalt","yes"
"Deutsche Bank","amenity=atm","Markkleeberg","Städtelner Straße 54; Marktkauf-Center Markkleeberg",04416,"Markkleeberg","Sachsen / Saxony","no"
"Deutsche Bank","amenity=atm","Meuselwitz","Am Baderdamm 17",04610,"Meuselwitz","Thüringen / Thuringia","yes"
"Deutsche Bank","amenity=atm","Oschatz","Hospitalstraße 14",04758,"Oschatz","Sachsen / Saxony",
"Deutsche Bank","amenity=atm","Quedlinburg","Marktstraße 3",06484,"Quedlinburg","Sachsen-Anhalt / Saxony-Anhalt","yes"
"Deutsche Bank","amenity=atm","Schkeuditz","Rathausplatz 1",04435,"Schkeuditz","Sachsen / Saxony","yes"
"Deutsche Bank","amenity=atm","Taucha","Markt 4",04425,"Taucha","Sachsen / Saxony","no"
"Deutsche Bank","amenity=atm","Torgau","Markt 5",04860,"Torgau","Sachsen / Saxony","no"
"Deutsche Bank","amenity=atm","Weißenfels","Jüdenstraße 48",06667,"Weißenfels","Sachsen-Anhalt / Saxony-Anhalt","yes"
"Deutsche Bank","amenity=atm","Wolfen","Dessauer Allee; Ortsteil Wolfen",06766,"Bitterfeld-Wolfen","Sachsen-Anhalt / Saxony-Anhalt","yes"
"Deutsche Bank","amenity=atm","Zeitz","Brüderstraße 3",06712,"Zeitz","Sachsen-Anhalt / Saxony-Anhalt","yes"
"Deutsche Bank","amenity=atm","Leipzig-Eutritzsch","Delitzscher Straße 49",04129,"Leipzig","Sachsen / Saxony","no"
"Deutsche Bank","amenity=atm","Leipzig-Hauptbahnhof","Willy-Brandt-Platz",04109,"Leipzig","Sachsen / Saxony","yes"
"Deutsche Bank","amenity=atm","Leipzig-Karl-Liebknecht-Straße","Riemannstraße 29b",04107,"Leipzig","Sachsen / Saxony","yes"
"Deutsche Bank","amenity=atm","Leipzig-Lindenau","Marktstraße 2-6",04177,"Leipzig","Sachsen / Saxony",
"Deutsche Bank","amenity=atm","Leipzig-Lößnig","Zwickauer Straße 125",04279,"Leipzig","Sachsen / Saxony","yes"
"Deutsche Bank","amenity=atm","Leipzig-Mockau","Essener Straße 102",04357,"Leipzig","Sachsen / Saxony","yes"
"Deutsche Bank","amenity=atm","Leipzig-Paunsdorf","Goldsternstraße 39",04329,"Leipzig","Sachsen / Saxony","yes"
"Deutsche Bank","amenity=atm","Leipzig-Schleußig","Könneritzstraße 86",04229,"Leipzig","Sachsen / Saxony","no"
"Deutsche Bank","amenity=atm","Markranstädt","Leipziger Straße 63",04420,"Markranstädt","Sachsen / Saxony","yes"
"Deutsche Bank","amenity=atm","Gardelegen","Nicolaistraße 2",39638,"Gardelegen","Sachsen-Anhalt / Saxony-Anhalt","yes"
"Deutsche Bank","amenity=atm","Genthin","Brandenburger Straße 61",39307,"Genthin","Sachsen-Anhalt / Saxony-Anhalt","yes"
"Deutsche Bank","amenity=atm","Blankenburg","Lange Straße 8",38889,"Blankenburg","Sachsen-Anhalt / Saxony-Anhalt","no"
"Deutsche Bank","amenity=atm","Halberstadt","Fischmarkt 3-5",38820,"Halberstadt","Sachsen-Anhalt / Saxony-Anhalt","yes"
"Deutsche Bank","amenity=atm","Haldensleben","Magdeburger Straße 23",39340,"Haldensleben","Sachsen-Anhalt / Saxony-Anhalt","no"
"Deutsche Bank","amenity=atm","Salzwedel","Neuperverstraße 30",29410,"Salzwedel","Sachsen-Anhalt / Saxony-Anhalt","yes"
"Deutsche Bank","amenity=atm","Wolmirstedt","August-Bebel-Straße 1",39326,"Wolmirstedt","Sachsen-Anhalt / Saxony-Anhalt","no"
"Deutsche Bank","amenity=atm","Zerbst","Markt 26",39261,"Zerbst","Sachsen-Anhalt / Saxony-Anhalt","yes"
"Deutsche Bank","amenity=atm","Magdeburg-Halberstädter Straße","Halberstädter Straße 55",39112,"Magdeburg","Sachsen-Anhalt / Saxony-Anhalt","yes"
"Deutsche Bank","amenity=atm","Magdeburg-Neustädter Platz","Albert-Schweitzer-Straße 16",39126,"Magdeburg","Sachsen-Anhalt / Saxony-Anhalt","yes"
"Deutsche Bank","amenity=atm","Magdeburg-Nicolaiplatz","Lübecker Straße 120",39124,"Magdeburg","Sachsen-Anhalt / Saxony-Anhalt","yes"
"Deutsche Bank","amenity=atm","Zossen","Baruther Straße 1",15806,"Zossen","Brandenburg","no"
"Deutsche Bank","amenity=atm","Schwarzheide","Schipkauer Straße 8",01987,"Schwarzheide","Brandenburg","yes"
"Deutsche Bank","amenity=atm","Teltow","Potsdamer Straße 48-50",14513,"Teltow","Brandenburg","yes"
"Deutsche Bank","amenity=atm","Bützow","Lange Straße 42",18246,"Bützow","Mecklenburg-Vorpommern / Mecklenburg-Western Pomerania","yes"
"Deutsche Bank","amenity=atm","Grimmen","Friedrichstraße 50",18507,"Grimmen","Mecklenburg-Vorpommern / Mecklenburg-Western Pomerania","yes"
"Deutsche Bank","amenity=atm","Gadebusch","Am Markt 3",19205,"Gadebusch","Mecklenburg-Vorpommern / Mecklenburg-Western Pomerania","yes"
"Deutsche Bank","amenity=atm","Schwerin-Großer Dreesch","Berliner Platz 1",19063,"Schwerin","Mecklenburg-Vorpommern / Mecklenburg-Western Pomerania","yes"
"Deutsche Bank","amenity=atm","Schwerin-Weststadt","Lessingstraße 33C",19059,"Schwerin","Mecklenburg-Vorpommern / Mecklenburg-Western Pomerania","yes"
"Deutsche Bank","amenity=atm","Güstrow-Südstadt","Platz der Freundschaft - EKZ",18273,"Güstrow","Mecklenburg-Vorpommern / Mecklenburg-Western Pomerania","no"
"Deutsche Bank","amenity=atm","Lübz","Am Markt 7",19386,"Lübz","Mecklenburg-Vorpommern / Mecklenburg-Western Pomerania","no"
"Deutsche Bank","amenity=atm","Plau","Marktstraße 26",19395,"Plau","Mecklenburg-Vorpommern / Mecklenburg-Western Pomerania","no"
"Deutsche Bank","amenity=atm","Grevesmühlen","August-Bebel-Straße 7",23936,"Grevesmühlen","Mecklenburg-Vorpommern / Mecklenburg-Western Pomerania","no"
"Deutsche Bank","amenity=atm","Wittenberge","Theaterarkaden, Bäckerstraße 32",19322,"Wittenberge","Brandenburg","no"
"Deutsche Bank","amenity=atm","Neubrandenburg-Am Marktplatz","Stargarder Straße 10",17033,"Neubrandenburg","Mecklenburg-Vorpommern / Mecklenburg-Western Pomerania","no"
"Deutsche Bank","amenity=atm","Neubrandenburg-Datzeberg","Max-Adrion-Strasse 1",17034,"Neubrandenburg","Mecklenburg-Vorpommern / Mecklenburg-Western Pomerania","yes"
"Deutsche Bank","amenity=atm","Neubrandenburg-Oststadt","Juri-Gagarin-Ring 1",17036,"Neubrandenburg","Mecklenburg-Vorpommern / Mecklenburg-Western Pomerania","no"
"Deutsche Bank","amenity=atm","Malchin","Steinstraße 19",17139,"Malchin","Mecklenburg-Vorpommern / Mecklenburg-Western Pomerania","yes"
"Deutsche Bank","amenity=atm","Templin","Bahnhofstraße 31",17268,"Templin","Brandenburg","no"
"Deutsche Bank","amenity=atm","Ueckermünde","Markt 2",17373,"Ueckermünde","Mecklenburg-Vorpommern / Mecklenburg-Western Pomerania","yes"
"Deutsche Bank","amenity=atm","Waren","Neuer Markt 10",17192,"Waren","Mecklenburg-Vorpommern / Mecklenburg-Western Pomerania","yes"
"Deutsche Bank","amenity=atm","Nauen","Marktstr. 21",14641,"Nauen","Brandenburg","yes"
"Deutsche Bank","amenity=atm","Potsdam-Drewitz","Hans-Albers-Str. 1",14480,"Potsdam","Brandenburg","yes"
"Deutsche Bank","amenity=atm","Wolfsburg-Fallersleben","Bahnhofstraße 15-16",38442,"Wolfsburg-Fallersleben","Niedersachsen / Lower Saxony","yes"
"Deutsche Bank","amenity=atm","Brandenburg-Hohenstücken","Tschirchdamm 17",14772,"Brandenburg","Brandenburg","yes"
"Deutsche Bank","amenity=atm","Kyritz","Marktplatz 10",16866,"Kyritz","Brandenburg","yes"
"Deutsche Bank","amenity=atm","Ludwigsfelde","Potsdamer Straße 51",14974,"Ludwigsfelde","Brandenburg","yes"
"Deutsche Bank","amenity=atm","Pritzwalk","Mittelstraße 4",16928,"Pritzwalk","Brandenburg","yes"
"Deutsche Bank","amenity=atm","Werder / Havel","Unter den Linden 4",14542,"Werder / Havel","Brandenburg","yes"
"Deutsche Bank","amenity=atm","Beeskow","Berliner Str. 21",15848,"Beeskow","Brandenburg","no"
"Deutsche Bank","amenity=atm","Bad Freienwalde","Karl-Marx-Straße 20",16259,"Bad Freienwalde","Brandenburg","no"
"Deutsche Bank","amenity=atm","Eisenhüttenstadt","Lindenallee 56-58",15890,"Eisenhüttenstadt","Brandenburg","no"
"Deutsche Bank","amenity=atm","Seelow","Breite Straße 1",15306,"Seelow","Brandenburg","no"
"Deutsche Bank","amenity=atm","Strausberg","Große Straße 63",15344,"Strausberg","Brandenburg","no"
"Deutsche Bank","amenity=atm","Cottbus-Sachsendorf","Bertold-Brecht-Straße 8",03050,"Cottbus","Brandenburg","yes"
"Deutsche Bank","amenity=atm","Cottbus-Sandow","Muskauer Platz 3",03042,"Cottbus","Brandenburg","yes"
"Deutsche Bank","amenity=atm","Finsterwalde","Markt 33",03238,"Finsterwalde","Brandenburg","yes"
"Deutsche Bank","amenity=atm","Guben","Berliner Straße 28",03172,"Guben","Brandenburg","no"
"Deutsche Bank","amenity=atm","Lübben","Hauptstr. 30",15907,"Lübben","Brandenburg","yes"
"Deutsche Bank","amenity=atm","Luckenwalde","Breite Straße 44",14943,"Luckenwalde","Brandenburg","no"
"Deutsche Bank","amenity=atm","Berlin-Hellersdorf","Janusz-Korczak-Straße 3-5",12627,"Berlin","Berlin","yes"
"Deutsche Bank","amenity=atm","Berlin-Landsberger Allee","Landsberger Allee 171",10369,"Berlin","Berlin","yes"
"Deutsche Bank","amenity=atm","Barth","Großträgerstr. 5",18356,"Barth","Mecklenburg-Vorpommern / Mecklenburg-Western Pomerania","no"
"Deutsche Bank","amenity=atm","Greifswald-Schönwalde","Ernst-Thälmann-Ring 4c",17491,"Greifswald","Mecklenburg-Vorpommern / Mecklenburg-Western Pomerania","no"
"Deutsche Bank","amenity=atm","Sassnitz","Hauptstraße 70",18546,"Sassnitz","Mecklenburg-Vorpommern / Mecklenburg-Western Pomerania","no"
"Deutsche Bank","amenity=atm","Stralsund-Knieper-West","Heinrich-Heine-Ring 120c",18435,"Stralsund","Mecklenburg-Vorpommern / Mecklenburg-Western Pomerania","yes"
"Deutsche Bank","amenity=atm","Rostock-Dierkow","Hannes-Meyer-Platz 26",18146,"Rostock","Mecklenburg-Vorpommern / Mecklenburg-Western Pomerania","no"
"Deutsche Bank","amenity=atm","Rostock-Doberaner Platz","Doberaner Platz",18057,"Rostock","Mecklenburg-Vorpommern / Mecklenburg-Western Pomerania","yes"
"Deutsche Bank","amenity=atm","Rostock-Südstadt","Nobelstraße 50-51",18059,"Rostock","Mecklenburg-Vorpommern / Mecklenburg-Western Pomerania","yes"
"Deutsche Bank","amenity=atm","Rostock-Warnemünde","Mühlenstraße 44",18119,"Rostock","Mecklenburg-Vorpommern / Mecklenburg-Western Pomerania","yes"
"Deutsche Bank","amenity=atm","Munster / Oertze","Veestherrnweg 12",29633,"Munster","Niedersachsen / Lower Saxony","yes"
"Deutsche Bank","amenity=atm","Herdecke","Mühlenstraße 7-15",58313,"Herdecke","Nordrhein-Westfalen / North Rhine-Westphalia","yes"
"Deutsche Bank","amenity=atm","Kassel-Bettenhausen","Leipziger Straße 164",34123,"Kassel","Hessen","yes"
"Deutsche Bank","amenity=atm","Traben-Trarbach","Bahnstraße 1",56841,"Traben-Trarbach","Rheinland-Pfalz / Rhineland-Palatinate","yes"
"Deutsche Bank","amenity=atm","Hamburg-Neugraben","Neugrabener Bahnhofstraße 14",21149,"Hamburg","Hamburg","yes"
"Deutsche Bank","amenity=atm","Henstedt-Ulzburg","Hamburger Straße 20",24558,"Henstedt-Ulzburg","Hamburg","yes"
"Deutsche Bank","amenity=atm","Winsen (Luhe)","Marktstraße 11",21423,"Winsen (Luhe)","Hamburg","yes"
"Deutsche Bank","amenity=atm","Wuppertal-Varresbeck","Döringstraße 8",42115,"Wuppertal","Nordrhein-Westfalen / North Rhine-Westphalia","yes"
"Deutsche Bank","amenity=atm","Wuppertal-Wichelhausbank","Calvinstr. 5",42103,"Wuppertal","Nordrhein-Westfalen / North Rhine-Westphalia","yes"
"Deutsche Bank","amenity=atm","Neuss-Norf","Südstraße 1",41469,"Neuss","Nordrhein-Westfalen / North Rhine-Westphalia","no"
"Deutsche Bank","amenity=atm","Meerbusch-Osterath","Kaarster Straße 8a",40670,"Meerbusch","Nordrhein-Westfalen / North Rhine-Westphalia","no"
"Deutsche Bank","amenity=atm","Ratingen-Hösel","Bahnhofstraße 101",40883,"Ratingen","Nordrhein-Westfalen / North Rhine-Westphalia","yes"
"Deutsche Bank","amenity=atm","Mönchengladbach-Alter Markt","Alter Markt 43-46",41061,"Mönchengladbach","Nordrhein-Westfalen / North Rhine-Westphalia","yes"
"Deutsche Bank","amenity=atm","Mönchengladbach-Neuwerk","Krahnendonk 11",41066,"Mönchengladbach","Nordrhein-Westfalen / North Rhine-Westphalia","yes"
"Deutsche Bank","amenity=atm","Mönchengladbach-Wickrath","Klosterstraße 4",41189,"Mönchengladbach","Nordrhein-Westfalen / North Rhine-Westphalia","no"
"Deutsche Bank","amenity=atm","Krefeld-Hüls","Hülser Markt 10",47839,"Krefeld","Nordrhein-Westfalen / North Rhine-Westphalia","yes"
"Deutsche Bank","amenity=atm","Willich-Schiefbahn","Hochstraße 27",47877,"Willich","Nordrhein-Westfalen / North Rhine-Westphalia","no"
"Deutsche Bank","amenity=atm","Kleve-Hoffmann-Allee","Hoffmann-Allee 2",47533,"Kleve","Nordrhein-Westfalen / North Rhine-Westphalia","no"
"Deutsche Bank","amenity=atm","Düsseldorf-Heerdt","Nikolaus-Knopp-Platz",40549,"Düsseldorf","Nordrhein-Westfalen / North Rhine-Westphalia","no"
"Deutsche Bank","amenity=atm","Düsseldorf-Herzogterrassen","Herzogstraße 15",40217,"Düsseldorf","Nordrhein-Westfalen / North Rhine-Westphalia","yes"
"Deutsche Bank","amenity=atm","Düsseldorf-Schadow-Arkaden","Schadowstraße 11",40212,"Düsseldorf","Nordrhein-Westfalen / North Rhine-Westphalia","yes"
"Deutsche Bank","amenity=atm","Düsseldorf-Universität","Universitätsstraße 1",40223,"Düsseldorf","Nordrhein-Westfalen / North Rhine-Westphalia","no"
"Deutsche Bank","amenity=atm","Düsseldorf-Unterrath","Kalkumer Straße 106",40468,"Düsseldorf","Nordrhein-Westfalen / North Rhine-Westphalia","yes"
"Deutsche Bank","amenity=atm","Dinslaken-Hiesfeld","Sterkrader Straße 248",46539,"Dinslaken","Nordrhein-Westfalen / North Rhine-Westphalia","yes"
"Deutsche Bank","amenity=atm","Mülheim (Ruhr)-Saarn","Düsseldorfer Straße 93",45481,"Mülheim (Ruhr)","Nordrhein-Westfalen / North Rhine-Westphalia","yes"
"Deutsche Bank","amenity=atm","Oberhausen-Mülheimer Straße","Falkensteinstraße 2",46047,"Oberhausen","Nordrhein-Westfalen / North Rhine-Westphalia","no"
"Deutsche Bank","amenity=atm","Oberhausen-Schmachtendorf","Schmachtendorfer Straße 158",46147,"Oberhausen","Nordrhein-Westfalen / North Rhine-Westphalia","yes"
"Deutsche Bank","amenity=atm","Hamm-Bockum-Hövel","Hohenhöveler Straße 12",59075,"Hamm","Nordrhein-Westfalen / North Rhine-Westphalia","no"
"Deutsche Bank","amenity=atm","Gelsenkirchen-Horst","Essener Straße 1",45899,"Gelsenkirchen","Nordrhein-Westfalen / North Rhine-Westphalia","no"
"Deutsche Bank","amenity=atm","Haltern am See","Lippstraße 6",45721,"Haltern am See","Nordrhein-Westfalen / North Rhine-Westphalia","yes"
"Deutsche Bank","amenity=atm","Bottrop-Kirchhellen","Hauptstraße 46",46244,"Bottrop","Nordrhein-Westfalen / North Rhine-Westphalia","no"
"Deutsche Bank","amenity=atm","Bochum-Höntrop","Westenfelder Straße 203",44867,"Bochum","Nordrhein-Westfalen / North Rhine-Westphalia","no"
"Deutsche Bank","amenity=atm","Bochum-Langendreer","Alte Bahnhofstraße 167",44892,"Bochum","Nordrhein-Westfalen / North Rhine-Westphalia","no"
"Deutsche Bank","amenity=atm","Bochum-Wiemelhausen","Brenscheder Straße 50",44799,"Bochum","Nordrhein-Westfalen / North Rhine-Westphalia",
"Deutsche Bank","amenity=atm","Witten-Annen","Annenstraße 156",58453,"Witten","Nordrhein-Westfalen / North Rhine-Westphalia","no"
"Deutsche Bank","amenity=atm","Herne-Sodingen","Eupener Straße 2",44627,"Herne","Nordrhein-Westfalen / North Rhine-Westphalia","yes"
"Deutsche Bank","amenity=atm","Dortmund-Wickede","Wickeder Hellweg 126",44319,"Dortmund","Nordrhein-Westfalen / North Rhine-Westphalia","yes"
"Deutsche Bank","amenity=atm","Dortmund-Wohnstift Kronenburg","Märkische Straße 100",44141,"Dortmund","Nordrhein-Westfalen / North Rhine-Westphalia","yes"
"Deutsche Bank","amenity=atm","Lünen-Brambauer","Waltroper Straße 14",44536,"Lünen","Nordrhein-Westfalen / North Rhine-Westphalia","no"
"Deutsche Bank","amenity=atm","Essen-Kupferdreh","Kupferdreher Straße 172",45257,"Essen","Nordrhein-Westfalen / North Rhine-Westphalia","yes"
"Deutsche Bank","amenity=atm","Essen-Stadtwald","Stadtwaldplatz 3",45134,"Essen","Nordrhein-Westfalen / North Rhine-Westphalia","no"
"Deutsche Bank","amenity=atm","Essen-Überruhr","Schulte-Hinsel-Straße 33",45277,"Essen","Nordrhein-Westfalen / North Rhine-Westphalia","yes"
"Deutsche Bank","amenity=atm","Euskirchen","Wilhelmstraße 10-12",53879,"Euskirchen","Nordrhein-Westfalen / North Rhine-Westphalia","yes"
"Deutsche Bank","amenity=atm","Hennef","Frankfurter Straße 101",53773,"Hennef","Nordrhein-Westfalen / North Rhine-Westphalia","no"
"Deutsche Bank","amenity=atm","Hürth","Luxemburger Straße 334",50354,"Hürth","Nordrhein-Westfalen / North Rhine-Westphalia","yes"
"Deutsche Bank","amenity=atm","Kerpen","Stiftsplatz 3",50171,"Kerpen","Nordrhein-Westfalen / North Rhine-Westphalia","no"
"Deutsche Bank","amenity=atm","Leverkusen-Schlebusch","Am Klösterchen 1-6",51375,"Leverkusen","Nordrhein-Westfalen / North Rhine-Westphalia","yes"
"Deutsche Bank","amenity=atm","Leichlingen","Im Brückerfeld 9",42799,"Leichlingen","Nordrhein-Westfalen / North Rhine-Westphalia","yes"
"Deutsche Bank","amenity=atm","Burscheid","Bürgermeister-Schmidt-Straße 1",51399,"Burscheid","Nordrhein-Westfalen / North Rhine-Westphalia","no"
"Deutsche Bank","amenity=atm","Bad Münstereifel","Orchheimer Straße 9",53902,"Bad Münstereifel","Nordrhein-Westfalen / North Rhine-Westphalia","no"
"Deutsche Bank","amenity=atm","Bonn-UN-Campus","Hermann-Ehlers-Straße 10",53113,"Bonn","Nordrhein-Westfalen / North Rhine-Westphalia","no"
"Deutsche Bank","amenity=atm","Remagen","Bahnhofstraße 4",53424,"Remagen","Rheinland-Pfalz / Rhineland-Palatinate","no"
"Deutsche Bank","amenity=atm","Meckenheim","Neuer Markt 26",53340,"Meckenheim","Nordrhein-Westfalen / North Rhine-Westphalia","yes"
"Deutsche Bank","amenity=atm","Kreuzau","Hauptstraße 36",52372,"Kreuzau","Nordrhein-Westfalen / North Rhine-Westphalia","yes"
"Deutsche Bank","amenity=atm","Herzogenrath-Merkstein","Kirchrather Straße 150",52134,"Herzogenrath","Nordrhein-Westfalen / North Rhine-Westphalia","yes"
"Deutsche Bank","amenity=atm","Übach-Palenberg","Talstraße 2",52531,"Übach-Palenberg","Nordrhein-Westfalen / North Rhine-Westphalia","yes"
"Deutsche Bank","amenity=atm","Würselen","Kaiserstraße 99",52146,"Würselen","Nordrhein-Westfalen / North Rhine-Westphalia","no"
"Deutsche Bank","amenity=atm","Heinsberg","Apfelstraße 37",52525,"Heinsberg","Nordrhein-Westfalen / North Rhine-Westphalia","yes"
"Deutsche Bank","amenity=atm","Biedenkopf","Hospitalstraße 36-38",35216,"Biedenkopf","Hessen","yes"
"Deutsche Bank","amenity=atm","Bad Berleburg","Graf-Casimir-Straße 7a",57319,"Bad Berleburg","Nordrhein-Westfalen / North Rhine-Westphalia","no"
"Deutsche Bank","amenity=atm","Altenkirchen","Wilhelmstraße 20, Zugang über Schloßweg",57610,"Altenkirchen","Rheinland-Pfalz / Rhineland-Palatinate","no"
"Deutsche Bank","amenity=atm","Attendorn","Ennester Straße 11",57439,"Attendorn","Nordrhein-Westfalen / North Rhine-Westphalia","no"
"Deutsche Bank","amenity=atm","Bad Laasphe","Bahnhofstraße 4",57334,"Bad Laasphe","Nordrhein-Westfalen / North Rhine-Westphalia","no"
"Deutsche Bank","amenity=atm","Herborn","Hauptstraße 105 a",35745,"Herborn","Hessen","yes"
"Deutsche Bank","amenity=atm","Schmallenberg","Weststraße 2",57392,"Schmallenberg","Nordrhein-Westfalen / North Rhine-Westphalia","no"
"Deutsche Bank","amenity=atm","Kreuztal","Marburger Straße 31",57223,"Kreuztal","Nordrhein-Westfalen / North Rhine-Westphalia","yes"
"Deutsche Bank","amenity=atm","Haiger","Hauptstraße 17",35708,"Haiger","Hessen","yes"
"Deutsche Bank","amenity=atm","Köln-Deutz","Deutzer Freiheit 53",50679,"Köln","Nordrhein-Westfalen / North Rhine-Westphalia","no"
"Deutsche Bank","amenity=atm","Köln-Höhenberg","Olpener Straße 87-89",51109,"Köln","Nordrhein-Westfalen / North Rhine-Westphalia","yes"
"Deutsche Bank","amenity=atm","Köln-Neumarktgalerie","Richmondstrasse 4-8",50667,"Köln","Nordrhein-Westfalen / North Rhine-Westphalia","yes"
"Deutsche Bank","amenity=atm","Köln-Zollstock","Theophanostraße 19",50969,"Köln","Nordrhein-Westfalen / North Rhine-Westphalia","yes"
"Deutsche Bank","amenity=atm","Pulheim","Alte Kölner Str. 2",50259,"Pulheim","Nordrhein-Westfalen / North Rhine-Westphalia","yes"
"Deutsche Bank","amenity=atm","Velbert-Neviges","Elberfelder Straße 21",42553,"Velbert","Nordrhein-Westfalen / North Rhine-Westphalia","no"
"Deutsche Bank","amenity=atm","Ennepetal-Voerde","An der Kirche 11",58256,"Ennepetal","Nordrhein-Westfalen / North Rhine-Westphalia","yes"
"Deutsche Bank","amenity=atm","Heiligenhaus","Hauptstraße 178",42579,"Heiligenhaus","Nordrhein-Westfalen / North Rhine-Westphalia","no"
"Deutsche Bank","amenity=atm","Remscheid-Hasten","Hammesberger Straße 5",42855,"Remscheid","Nordrhein-Westfalen / North Rhine-Westphalia","no"
"Deutsche Bank","amenity=atm","Solingen-Clemens Galerie","Mühlenplatz 1",42651,"Solingen","Nordrhein-Westfalen / North Rhine-Westphalia","yes"
"Deutsche Bank","amenity=atm","Solingen-Wald","Friedrich-Ebert-Straße 101",42719,"Solingen","Nordrhein-Westfalen / North Rhine-Westphalia","yes"
"Deutsche Bank","amenity=atm","Hückeswagen","Bahnhofstraße 16-18",42499,"Hückeswagen","Nordrhein-Westfalen / North Rhine-Westphalia","yes"
"Deutsche Bank","amenity=atm","Radevormwald","Kaiserstraße 61",42477,"Radevormwald","Nordrhein-Westfalen / North Rhine-Westphalia","no"
"Deutsche Bank","amenity=atm","Meinerzhagen","Derschlager Straße 16",58540,"Meinerzhagen","Nordrhein-Westfalen / North Rhine-Westphalia","no"
"Deutsche Bank","amenity=atm","Werdohl","Freiheitstraße 28",58791,"Werdohl","Nordrhein-Westfalen / North Rhine-Westphalia","no"
"Deutsche Bank","amenity=atm","Iserlohn-Letmathe","Hagener Straße 59",58642,"Iserlohn","Nordrhein-Westfalen / North Rhine-Westphalia","no"
"Deutsche Bank","amenity=atm","Hagen-Boele","Schwerter Straße 156",58099,"Hagen","Nordrhein-Westfalen / North Rhine-Westphalia","yes"
"Deutsche Bank","amenity=atm","Hagen-Haspe","Voerder Straße 11-15",58135,"Hagen","Nordrhein-Westfalen / North Rhine-Westphalia","yes"
"Deutsche Bank","amenity=atm","Kierspe","Thingslindestraße 27-29",58566,"Kierspe","Nordrhein-Westfalen / North Rhine-Westphalia","yes"
"Deutsche Bank","amenity=atm","Arnsberg-Alt-Arnsberg","Clemens-August-Straße 15",59821,"Arnsberg","Nordrhein-Westfalen / North Rhine-Westphalia","yes"
"Deutsche Bank","amenity=atm","Meschede","Winziger Platz 4",59872,"Meschede","Nordrhein-Westfalen / North Rhine-Westphalia","no"
"Deutsche Bank","amenity=atm","Offenbach-Bieber","Aschaffenburger Straße 36-38",63073,"Offenbach","Hessen","yes"
"Deutsche Bank","amenity=atm","Darmstadt-City Carree","Im Carree",64283,"Darmstadt","Hessen","yes"
"Deutsche Bank","amenity=atm","Wiesbaden-Kirchgasse","Kirchgasse 6, Luisenforum; 1. OG, Shop Nr. 13",65185,"Wiesbaden","Hessen","yes"
"Deutsche Bank","amenity=atm","Eltville","Rheingauer Straße 23",65343,"Eltville","Hessen","no"
"Deutsche Bank","amenity=atm","Taunusstein","Aarstraße 148",65232,"Taunusstein","Hessen","yes"
"Deutsche Bank","amenity=atm","Heppenheim","Friedrichstraße 29",64646,"Heppenheim","Hessen","no"
"Deutsche Bank","amenity=atm","Alsfeld","Obergasse 6",36304,"Alsfeld","Hessen","no"
"Deutsche Bank","amenity=atm","Obertshausen","Seligenstädter Straße 43",63179,"Obertshausen","Hessen","no"
"Deutsche Bank","amenity=atm","Rodgau","Frankfurter Straße 85",63110,"Rodgau","Hessen","no"
"Deutsche Bank","amenity=atm","Griesheim","Wilhelm-Leuschner-Straße 15",64347,"Griesheim","Hessen","yes"
"Deutsche Bank","amenity=atm","Groß-Gerau","Am Sandböhl 2",64521,"Groß-Gerau","Hessen","no"
"Deutsche Bank","amenity=atm","Eschborn-Kunden","Frankfurter Straße 84",65760,"Eschborn","Hessen","no"
"Deutsche Bank","amenity=atm","Frankfurt-Ziegelhüttenplatz","Ziegelhüttenweg 1-3",60598,"Frankfurt am Main","Hessen","no"
"Deutsche Bank","amenity=atm","Jever","Alter Markt 17",26441,"Jever","Niedersachsen / Lower Saxony",
"Deutsche Bank","amenity=atm","Emden","Alter Markt 3",26721,"Emden","Niedersachsen / Lower Saxony","no"
"Deutsche Bank","amenity=atm","Weener","Westerstraße 32",26826,"Weener","Niedersachsen / Lower Saxony","yes"
"Deutsche Bank","amenity=atm","Lohne","Marktstraße 23",49393,"Lohne","Niedersachsen / Lower Saxony","yes"
"Deutsche Bank","amenity=atm","Lauenburg","Berliner Straße 11",21481,"Lauenburg","Schleswig-Holstein","yes"
"Deutsche Bank","amenity=atm","Kiel-Friedrichsort","An der Schanze 37",24159,"Kiel","Schleswig-Holstein","no"
"Deutsche Bank","amenity=atm","Kiel-Hassee","Saarbrückenstraße 54",24114,"Kiel","Schleswig-Holstein","yes"
"Deutsche Bank","amenity=atm","Kiel-Ostufer-Wellingdorf","Schönberger Straße 33",24148,"Kiel","Schleswig-Holstein","no"
"Deutsche Bank","amenity=atm","Harsefeld","Marktstraße 6",21698,"Harsefeld","Niedersachsen / Lower Saxony","yes"
"Deutsche Bank","amenity=atm","Flensburg-Mürwik","Fördestraße 74",24944,"Flensburg","Schleswig-Holstein","yes"
"Deutsche Bank","amenity=atm","Brunsbüttel","Koogstraße 8",25541,"Brunsbüttel","Schleswig-Holstein","yes"
"Deutsche Bank","amenity=atm","Lübeck-Karlshof","Forstmeisterweg 83",23568,"Lübeck","Schleswig-Holstein","yes"
"Deutsche Bank","amenity=atm","Burg (Fehmarn)","Am Markt 26",23769,"Burg (Fehmarn)","Schleswig-Holstein","no"
"Deutsche Bank","amenity=atm","Grömitz","Neustädter Straße 1",23743,"Grömitz","Schleswig-Holstein","yes"
"Deutsche Bank","amenity=atm","Heiligenhafen","Markt 15",23774,"Heiligenhafen","Schleswig-Holstein","no"
"Deutsche Bank","amenity=atm","Lübeck-Schlutup","Mecklenburger Straße 57",23568,"Lübeck","Schleswig-Holstein","no"
"Deutsche Bank","amenity=atm","Pansdorf","Eutiner Straße 25a",23689,"Pansdorf","Schleswig-Holstein","yes"
"Deutsche Bank","amenity=atm","Sereetz","Dorfstraße 7",23611,"Sereetz","Schleswig-Holstein","yes"
"Deutsche Bank","amenity=atm","Cuxhaven","Deichstraße 2",27472,"Cuxhaven","Niedersachsen / Lower Saxony","no"
"Deutsche Bank","amenity=atm","Hamburg-Barmbek","Fuhlsbüttler Straße 3-7",22305,"Hamburg","Hamburg","yes"
"Deutsche Bank","amenity=atm","Mühldorf","Stadtplatz 78-80",84453,"Mühldorf","Bayern / Bavaria","no"
"Deutsche Bank","amenity=atm","Weilheim","Münchner Straße 7",82362,"Weilheim","Bayern / Bavaria","yes"
"Deutsche Bank","amenity=atm","Kulmbach","Spitalgasse 9",95326,"Kulmbach","Bayern / Bavaria","no"
"Deutsche Bank","amenity=atm","Erding","Am Bahnhof 7",85435,"Erding","Bayern / Bavaria","no"
"Deutsche Bank","amenity=atm","Tegernsee","Schwaighofstraße 87",83684,"Tegernsee","Bayern / Bavaria","yes"
"Deutsche Bank","amenity=atm","Augsburg-Haunstetten","Königsbrunner Straße 75",86179,"Augsburg","Bayern / Bavaria","no"
"Deutsche Bank","amenity=atm","Ingolstadt-Friedrich-Ebert-Straße","Friedrich-Ebert-Straße 71",85055,"Ingolstadt","Bayern / Bavaria","yes"
"Deutsche Bank","amenity=atm","Ingolstadt-Gaimersheimer Straße","Gaimersheimer Straße 52",85057,"Ingolstadt","Bayern / Bavaria","yes"
"Deutsche Bank","amenity=atm","Bad Wörishofen","Kathreinerstraße 4",86825,"Bad Wörishofen","Bayern / Bavaria","no"
"Deutsche Bank","amenity=atm","Gersthofen","Augsburger Straße 32",86368,"Gersthofen","Bayern / Bavaria","no"
"Deutsche Bank","amenity=atm","Günzburg","Am Stadtgraben 1",89312,"Günzburg","Bayern / Bavaria","no"
"Deutsche Bank","amenity=atm","Pfaffenhofen","Hauptplatz 33",85276,"Pfaffenhofen","Bayern / Bavaria","yes"
"Deutsche Bank","amenity=atm","Sonthofen","Völkstr. 7",87527,"Sonthofen","Bayern / Bavaria","no"
"Deutsche Bank","amenity=atm","Straubing","Hebbelstraße 14; EKZ Gäubodenpark",94315,"Straubing","Bayern / Bavaria","no"
"Deutsche Bank","amenity=atm","Ansbach","Maximilianstraße 8-10",91522,"Ansbach","Bayern / Bavaria","no"
"Deutsche Bank","amenity=atm","Weiden","Sintzelstraße 2",92637,"Weiden i.d.OPf.","Bayern / Bavaria","no"
"Deutsche Bank","amenity=atm","Neumarkt","Bahnhofstraße 5",92318,"Neumarkt i. d. OPf.","Bayern / Bavaria","no"
"Deutsche Bank","amenity=atm","Schwabach","Bahnhofstraße 33",91126,"Schwabach","Bayern / Bavaria","no"
"Deutsche Bank","amenity=atm","Schweinfurt","Albrecht-Dürer-Platz 1-5",97421,"Schweinfurt","Bayern / Bavaria","no"
"Deutsche Bank","amenity=atm","München-Flughafen","Airport / Flughafen, Zentralgebäude, Ebene 03",85356,"München","Bayern / Bavaria","yes"
"Deutsche Bank","amenity=atm","Landstuhl","Kaiserstraße 42 - 44",66849,"Landstuhl","Rheinland-Pfalz / Rhineland-Palatinate","yes"
"Deutsche Bank","amenity=atm","Karlsruhe-Rüppurr","Diakonissenstraße 1",76199,"Karlsruhe","Baden-Württemberg / Baden-Wuerttemberg","no"
"Deutsche Bank","amenity=atm","Bretten","Marktplatz 11",75015,"Bretten","Baden-Württemberg / Baden-Wuerttemberg","no"
"Deutsche Bank","amenity=atm","Weinheim-Weststadt","Kurt-Schumacher-Straße 5",69469,"Weinheim","Baden-Württemberg / Baden-Wuerttemberg","no"
"Deutsche Bank","amenity=atm","Mühlacker","Bahnhofstraße 72",75417,"Mühlacker","Baden-Württemberg / Baden-Wuerttemberg","no"
"Deutsche Bank","amenity=atm","Mannheim-Lange Rötterstraße","Lange Rötterstraße 102",68167,"Mannheim","Baden-Württemberg / Baden-Wuerttemberg","no"
"Deutsche Bank","amenity=atm","Mannheim-Seckenheimer Straße","Seckenheimer Straße 48",68165,"Mannheim","Baden-Württemberg / Baden-Wuerttemberg","yes"
"Deutsche Bank","amenity=atm","Fellbach","Bahnhofstr. 19-21",70734,"Fellbach","Baden-Württemberg / Baden-Wuerttemberg","no"
"Deutsche Bank","amenity=atm","Leinfelden","Musberger Straße 3",70771,"Leinfelden-Echterdingen","Baden-Württemberg / Baden-Wuerttemberg","yes"
"Deutsche Bank","amenity=atm","Nürtingen","Kirchstraße 33",72622,"Nürtingen","Baden-Württemberg / Baden-Wuerttemberg","no"
"Deutsche Bank","amenity=atm","Kornwestheim","Bahnhofstraße 27",70806,"Kornwestheim","Baden-Württemberg / Baden-Wuerttemberg","no"
"Deutsche Bank","amenity=atm","Neckarsulm","Marktstraße 49",74172,"Neckarsulm","Baden-Württemberg / Baden-Wuerttemberg","no"
"Deutsche Bank","amenity=atm","Schwäbisch Hall","Im Haal 13",74523,"Schwäbisch Hall","Baden-Württemberg / Baden-Wuerttemberg","yes"
"Deutsche Bank","amenity=atm","Marbach","Güntterstraße 21",71672,"Marbach","Baden-Württemberg / Baden-Wuerttemberg","yes"
"Deutsche Bank","amenity=atm","Plochingen","Widdumstraße 4",73207,"Plochingen","Baden-Württemberg / Baden-Wuerttemberg","yes"
"Deutsche Bank","amenity=atm","Eislingen","Hauptstraße 60",73054,"Eislingen","Baden-Württemberg / Baden-Wuerttemberg","no"
"Deutsche Bank","amenity=atm","Crailsheim","Lange Straße 30",74564,"Crailsheim","Baden-Württemberg / Baden-Wuerttemberg","no"
"Deutsche Bank","amenity=atm","Ellwangen","Spitalstraße 14",73479,"Ellwangen","Baden-Württemberg / Baden-Wuerttemberg","yes"
"Deutsche Bank","amenity=atm","Giengen","Marktstraße 3",89537,"Giengen","Baden-Württemberg / Baden-Wuerttemberg","no"
"Deutsche Bank","amenity=atm","Metzingen","Eisenbahnstraße 29",72555,"Metzingen","Baden-Württemberg / Baden-Wuerttemberg","yes"
"Deutsche Bank","amenity=atm","Pfullingen","Badstraße 1",72793,"Pfullingen","Baden-Württemberg / Baden-Wuerttemberg","yes"
"Deutsche Bank","amenity=atm","Rottenburg","Marktplatz 24",72108,"Rottenburg","Baden-Württemberg / Baden-Wuerttemberg","no"
"Deutsche Bank","amenity=atm","Gerlingen","Hauptstraße 3",70839,"Gerlingen","Baden-Württemberg / Baden-Wuerttemberg","yes"
"Deutsche Bank","amenity=atm","Lindau","Reichsplatz 5",88131,"Lindau","Bayern / Bavaria","yes"
"Deutsche Bank","amenity=atm","Balingen","Wilhelmstraße 12",72336,"Balingen","Baden-Württemberg / Baden-Wuerttemberg","yes"
"Deutsche Bank","amenity=atm","Wangen","Marktplatz 5",88239,"Wangen","Baden-Württemberg / Baden-Wuerttemberg","no"
"Deutsche Bank","amenity=atm","Weingarten","Abt-Hyller-Straße 1",88250,"Weingarten","Baden-Württemberg / Baden-Wuerttemberg","yes"
"Deutsche Bank","amenity=atm","Stuttgart-Möhringen","Hechinger Straße 2",70567,"Stuttgart","Baden-Württemberg / Baden-Wuerttemberg","no"
"Deutsche Bank","amenity=atm","Stuttgart-Sillenbuch","Kirchheimer Straße 60",70619,"Stuttgart","Baden-Württemberg / Baden-Wuerttemberg","yes"
